,accuracy,formatted_address,google_place_id,input_string,lat,lng,number_of_results,postcode,status,type
0,ROOFTOP,"6333 N Scottsdale Rd, Scottsdale, AZ 85250, USA",ChIJJS1YcBQLK4cROm0PbkS3R9M,"Hilton Scottsdale Resort, pool deck",33.530694,-111.9242098,2,85250,OK,"establishment,health,lodging,point_of_interest,spa"
1,ROOFTOP,"114 E 11th St, Michigan City, IN 46360, USA",ChIJmRTqgXkIEYgRScf8vzJWR2s,City Train Line,41.7117637,-86.8976995,1,46360,OK,"establishment,point_of_interest"
2,APPROXIMATE,"New York, NY, USA",ChIJOwg_06VPwokRYv534QaPC8g,NYC,40.7127753,-74.0059728,1,,OK,"locality,political"
3,APPROXIMATE,"Treforest, Pontypridd CF37 1SH, UK",ChIJSyfT3m4XbkgRoBma3yr8oVY,"Treforest, Wales, UK",51.59431,-3.3268985,1,CF37 1SH,OK,"political,sublocality,sublocality_level_1"
4,APPROXIMATE,"San Pedro, Los Angeles, CA, USA",ChIJpYrtFq413YARX4eG8Fd9FAQ,"San Pedro, CA",33.7360619,-118.2922461,1,,OK,"neighborhood,political"
5,APPROXIMATE,"New Orleans, LA, USA",ChIJZYIRslSkIIYRtNMiXuhbBts,New Orleans,29.9510658,-90.0715323,1,,OK,"locality,political"
6,APPROXIMATE,"Metro Manila, Philippines",ChIJbTgmYNLIlzMR0HiSrNoj7V8,"Metro Manila, Philippines",14.6090537,121.0222565,1,,OK,"administrative_area_level_1,political"
7,APPROXIMATE,"Oakland, CA, USA",ChIJA-2qKIt9hYARZ5N1NdUVtHE,"Oakland, CA",37.8043637,-122.2711137,1,,OK,"locality,political"
8,APPROXIMATE,"Nabeul‎, Tunisia",ChIJ09O975WYAhMR_uScVtFgXS4,nabel/tunisia,36.4512893,10.7356634,1,,OK,"locality,political"
9,APPROXIMATE,"Seattle, WA, USA",ChIJVTPokywQkFQRmtVEaUZlJRA,"Seattle, WA",47.6062095,-122.3320708,1,,OK,"locality,political"
10,APPROXIMATE,"Nan, Thailand",ChIJu20dDgmOJzERwJWGOLGCgAs,,18.7756318,100.7730417,1,,OK,"administrative_area_level_1,political"
11,APPROXIMATE,"Minneapolis, MN, USA",ChIJvbt3k5Azs1IRB-56L4TJn5M,"Minneapolis, MN",44.977753,-93.2650108,1,,OK,"locality,political"
12,,,,"My home, my place of refuge, my space for learning",,,0,,ZERO_RESULTS,
13,APPROXIMATE,Romania,ChIJw3aJlSb_sUARlLEEqJJP74Q,romania,45.943161,24.96676,1,,OK,"country,political"
14,APPROXIMATE,"Downtown, St Louis, MO, USA",ChIJJ0pzx2qz2IcRvXHPs6W_1Rk,Downtown St. Louis MO,38.6266074,-90.1916501,1,,OK,"neighborhood,political"
15,GEOMETRIC_CENTER,"Seattle, WA 98104, USA",ChIJk7JhQbtqkFQRBFKWw7V1BrM,Seattle. 2nd ave ext. and S Jackson stop.,47.5992661,-122.329857,1,98104,OK,"bus_station,establishment,point_of_interest,transit_station"
16,ROOFTOP,"3908 S 76th St, Milwaukee, WI 53220, USA",ChIJ3UiEBCYQBYgRG9JBnJOUeQM,Home town gas station,42.9734082,-88.0074313,1,53220,OK,"establishment,gas_station,point_of_interest"
17,ROOFTOP,"2623 NE University Village St, Seattle, WA 98105, USA",ChIJV3OTAoYUkFQRH3FNgxsjdqI,"University Village, Seattle, WA",47.6631482,-122.2982465,1,98105,OK,"establishment,point_of_interest,shopping_mall"
18,APPROXIMATE,"Nan, Thailand",ChIJu20dDgmOJzERwJWGOLGCgAs,,18.7756318,100.7730417,1,,OK,"administrative_area_level_1,political"
19,APPROXIMATE,"Hampton, UK",ChIJKT7g_T8LdkgRCInUKIabVJA,Hampton (London),51.4133939,-0.366712,1,,OK,"locality,political"
20,ROOFTOP,"626 Rutherford Rd, Harrisburg, PA 17109, USA",ChIJWTRL8cu4yIkRYtYbumqNXq0,"Harrisburg, PA- east high",40.2845259,-76.8001736,1,17109,OK,"establishment,point_of_interest,school"
21,APPROXIMATE,"Nan, Thailand",ChIJu20dDgmOJzERwJWGOLGCgAs,,18.7756318,100.7730417,1,,OK,"administrative_area_level_1,political"
22,APPROXIMATE,"Minneapolis, MN, USA",ChIJvbt3k5Azs1IRB-56L4TJn5M,Minneapolis,44.977753,-93.2650108,1,,OK,"locality,political"
23,APPROXIMATE,"Nan, Thailand",ChIJu20dDgmOJzERwJWGOLGCgAs,,18.7756318,100.7730417,1,,OK,"administrative_area_level_1,political"
24,APPROXIMATE,"Washington Heights, New York, NY, USA",ChIJyzs3Vpz2wokRBAVKClFzdR4,Washington Heights,40.8417082,-73.9393554,1,,OK,"neighborhood,political"
25,ROOFTOP,"201 W 4th St, Pittsburg, KS 66762, USA",ChIJXYcLRvPCx4cRbFoQkEZcdh4,City,37.4107475,-94.7069366,1,66762,OK,"accounting,establishment,finance,library,local_government_office,point_of_interest"
26,APPROXIMATE,"Toronto, ON, Canada",ChIJpTvG15DL1IkRd8S0KlBVNTI,"Toronto, Canada",43.653226,-79.3831843,1,,OK,"locality,political"
27,APPROXIMATE,"Toronto, ON, Canada",ChIJpTvG15DL1IkRd8S0KlBVNTI,"Toronto, Canada",43.653226,-79.3831843,1,,OK,"locality,political"
28,APPROXIMATE,"Toronto, ON, Canada",ChIJpTvG15DL1IkRd8S0KlBVNTI,"Toronto, Canada",43.653226,-79.3831843,1,,OK,"locality,political"
29,APPROXIMATE,"Toronto, ON, Canada",ChIJpTvG15DL1IkRd8S0KlBVNTI,"Toronto, Canada",43.653226,-79.3831843,1,,OK,"locality,political"
30,APPROXIMATE,"Seattle, WA, USA",ChIJVTPokywQkFQRmtVEaUZlJRA,"Seattle, WA",47.6062095,-122.3320708,1,,OK,"locality,political"
31,APPROXIMATE,"Downtown, San Diego, CA, USA",ChIJB7MPbKlU2YARbmqYQPCaQaU,"Downtown, San Diego",32.7167272,-117.1661194,1,,OK,"neighborhood,political"
32,APPROXIMATE,"Larne BT40, UK",ChIJe1btsGSXYUgRE508CtvmOeA,"Larne, N. Ireland",54.8578003,-5.8236224,1,BT40,OK,"locality,political"
33,APPROXIMATE,Colombia,ChIJo5QVrjqkFY4RQKPy7wSaDZo,Colombia,4.570868,-74.297333,1,,OK,"country,political"
34,GEOMETRIC_CENTER,"Fd-162, Kentucky, USA",ChIJFaFs_bHweogR76ClNT910Yg,"162nd & Broadway Washington Heights, New York, NY",36.7776415,-88.0876042,10,,OK,route
35,ROOFTOP,"1313 National Ave, San Diego, CA 92101, USA",ChIJRcSy20JT2YARgwC7hSIDONw,"San Diego, CA, USA at a bus stop and walking home",32.7054592,-117.1524601,1,92101,OK,"bus_station,establishment,point_of_interest,transit_station"
36,,,,"St. Louis, NYC, Baltimore, Newark, Granada (Spain), Lima (Peru), Santiago (Chile)",,,0,,ZERO_RESULTS,
37,APPROXIMATE,"Washington, DC, USA",ChIJW-T2Wt7Gt4kRKl2I1CJFUsI,Washington DC,38.9071923,-77.0368707,1,,OK,"locality,political"
38,GEOMETRIC_CENTER,"Shop No:F-04, First Floor, Pacific Mall, FP cts-42 & 43,Gultekdi, Shankar Seth Road, Vrindavan Society, Guru Nanak Nagar, Pune, Maharashtra 411042, India",ChIJ_dn66jvAwjsRUs5F_sKTJaA,In front of my home!,18.5017,73.8724104,2,411042,OK,"establishment,point_of_interest,store"
39,GEOMETRIC_CENTER,"Shop No:F-04, First Floor, Pacific Mall, FP cts-42 & 43,Gultekdi, Shankar Seth Road, Vrindavan Society, Guru Nanak Nagar, Pune, Maharashtra 411042, India",ChIJ_dn66jvAwjsRUs5F_sKTJaA,In front of my home!,18.5017,73.8724104,2,411042,OK,"establishment,point_of_interest,store"
40,APPROXIMATE,"Boston, MA, USA",ChIJGzE9DS1l44kRoOhiASS_fHg,"Boston, MA",42.3600825,-71.0588801,1,,OK,"locality,political"
41,APPROXIMATE,"Nan, Thailand",ChIJu20dDgmOJzERwJWGOLGCgAs,,18.7756318,100.7730417,1,,OK,"administrative_area_level_1,political"
42,APPROXIMATE,"Buenos Aires, Argentina",ChIJvQz5TjvKvJURh47oiC6Bs6A,"Buenos Aires, Argentina",-34.6036844,-58.3815591,1,,OK,"locality,political"
43,APPROXIMATE,"Amsterdam, Netherlands",ChIJVXealLU_xkcRja_At0z9AGY,Amsterdam,52.3702157,4.8951679,1,,OK,"locality,political"
44,APPROXIMATE,"Nan, Thailand",ChIJu20dDgmOJzERwJWGOLGCgAs,,18.7756318,100.7730417,1,,OK,"administrative_area_level_1,political"
45,APPROXIMATE,"British Columbia, Canada",ChIJr2prqsdmelMR-fHnN-lBG4g,"BC, Canada",53.7266683,-127.6476205,1,,OK,"administrative_area_level_1,political"
46,APPROXIMATE,"Upper East Side, New York, NY, USA",ChIJa49ICL9YwokRDaotFKkGh2E,"New York, NY, Upper East Side",40.7735649,-73.9565551,1,,OK,"neighborhood,political"
47,APPROXIMATE,"Meatpacking District, New York, NY 10014, USA",ChIJSWHWcMBZwokRnuiJh_NVI3A,"NYC, Meatpacking District",40.7409865,-74.0076108,1,10014,OK,"neighborhood,political"
48,APPROXIMATE,"Lausanne, Switzerland",ChIJ5aeJzT4pjEcRXu7iysk_F-s,"Lausanne, Switzerland",46.5196535,6.6322734,1,,OK,"locality,political"
49,APPROXIMATE,"Leeds, UK",ChIJmb1k2ko-eUgRqdwTAv26rVE,"Leeds, England",53.8007554,-1.5490774,1,,OK,"locality,political"
50,GEOMETRIC_CENTER,"London NW2 1LW, UK",ChIJ2QE5jOkQdkgR2Yx_f0lx81M,London North Circular bus stop,51.5759887,-0.2190932,1,NW2 1LW,OK,"bus_station,establishment,point_of_interest,transit_station"
51,ROOFTOP,"1250 S Capital of Texas Hwy, West Lake Hills, TX 78746, USA",ChIJc0KI6Hc1W4YRqrMFXXsIrT0,capital,30.2806438,-97.823793,1,78746,OK,"establishment,finance,point_of_interest"
52,APPROXIMATE,"Manila, Metro Manila, Philippines",ChIJi8MeVwPKlzMRH8FpEHXV0Wk,"Manila, Philippines",14.5995124,120.9842195,1,,OK,"locality,political"
53,APPROXIMATE,"Baltimore, MD, USA",ChIJt4P01q4DyIkRWOcjQqiWSAQ,"Baltimore, MD",39.2903848,-76.6121893,1,,OK,"locality,political"
54,APPROXIMATE,"Seattle, WA, USA",ChIJVTPokywQkFQRmtVEaUZlJRA,"Seattle, WA, USA",47.6062095,-122.3320708,1,,OK,"locality,political"
55,APPROXIMATE,Sri Lanka,ChIJnR5a9jxZ4joRjNPiALSkPeE,in Sri Lanka,7.873054,80.771797,1,,OK,"country,political"
56,ROOFTOP,"541 Hollander Rd, New Holland, PA 17557, USA",ChIJiQQUyJo_xokR7K73RnzpO1E,"New Holland, Pennsylvania (walking to work)",40.08585,-76.0978559,1,17557,OK,"establishment,general_contractor,point_of_interest"
57,ROOFTOP,"1331 L St NW, Washington, DC 20005, USA",ChIJf_8eG5W3t4kRsZoKkbwLgwM,"1331 L St. NW, Washington, DC",38.9041649,-77.0310296,1,20005,OK,street_address
58,APPROXIMATE,"San Antonio, TX, USA",ChIJrw7QBK9YXIYRvBagEDvhVgg,"San Antonio, Texas",29.4241219,-98.4936282,1,,OK,"locality,political"
59,APPROXIMATE,"Conroe, TX, USA",ChIJSTttVZEkR4YRDhGtHZsrNeY,"Conroe, Texas USA",30.3118769,-95.4560512,1,,OK,"locality,political"
60,ROOFTOP,"88 Greenwich St, New York, NY 10006, USA",ChIJw3zO3RBawokR9MUi9Mk41n4,"The Greenwich Club Residents, NYC",40.7077779,-74.013832,1,10006,OK,"establishment,point_of_interest,real_estate_agency"
61,APPROXIMATE,"Midtown East, New York, NY, USA",ChIJuz0pm-JYwokRfGONItGYHpc,"Midtown East, New York, New York, USA",40.7540369,-73.9668408,1,,OK,"neighborhood,political"
62,APPROXIMATE,"London, UK",ChIJdd4hrwug2EcRmSrV3Vo6llI,"London, UK",51.5073509,-0.1277583,1,,OK,"locality,political"
63,ROOFTOP,"1000 4th Ave, Seattle, WA 98104, USA",ChIJ55fLWVtBkFQR0v31eadEoLM,Seattle/wa/USA central library 4th and Madison ,47.6067006,-122.3325009,1,98104,OK,"establishment,library,point_of_interest"
64,GEOMETRIC_CENTER,"Crawford St, Wigan WN1 1NG, UK",ChIJ36fKUHcPe0gRemPxzA9XyoQ,"Lancashire, UK, on the street",53.5457774,-2.6344013,1,WN1 1NG,OK,"establishment,point_of_interest,university"
65,APPROXIMATE,"Harringay, London, UK",ChIJu-6IqvYbdkgRWTIroNxDQhQ,"Harringay, London ",51.582426,-0.09966,1,,OK,"locality,neighborhood,political"
66,APPROXIMATE,Japan,ChIJLxl_1w9OZzQRRFJmfNR1QvU,Japan,36.204824,138.252924,1,,OK,"country,political"
67,APPROXIMATE,"Fussa, Tokyo, Japan",ChIJVaRjoicgGWARTsydKiytchA,"Fussa, Japan",35.7384505,139.3269322,1,,OK,"locality,political"
68,APPROXIMATE,"Lacey, WA, USA",ChIJdbUCPlwLkVQRDrvVGva11RQ,"Lacey, WA",47.0342629,-122.8231915,1,,OK,"locality,political"
69,APPROXIMATE,"Littleton, CO, USA",ChIJKzvi-z98a4cRwDzWrumXBQc,"Littleton, Colorado",39.613321,-105.0166498,1,,OK,"locality,political"
70,APPROXIMATE,"Collier County, FL, USA",ChIJobBYdXKs24gRmut-Oyvi-mw,"Collier & Mt Lebanon, PA",26.069985,-81.4278984,1,,OK,"administrative_area_level_2,political"
71,GEOMETRIC_CENTER,"Crosstown Pkwy, Port St Lucie, FL, United States",ChIJHfVloePr3ogRmdFk2daHJDk,Florida/Gym/Sidewalk,27.2957579,-80.3698065,1,,OK,"establishment,gym,health,point_of_interest"
72,ROOFTOP,"255 13th Ave S, Naples, FL 34102, USA",ChIJvbeE7Azh2ogR5ozgejctCaE,Florida/Pub,26.1312887,-81.8023711,1,34102,OK,"bar,establishment,food,point_of_interest,restaurant"
73,ROOFTOP,"Europaplatz 2, 1150 Wien, Austria",ChIJM3TCt_UHbUcRUQpk10hh5Gs,Austria/Vienna/Westbahnhof,48.1967991,16.3377019,1,1150,OK,"establishment,point_of_interest,train_station,transit_station"
74,APPROXIMATE,"Querétaro, Mexico",ChIJX3BEYdFE04URu2lIpMSxRpE,querétaro,20.5888184,-100.3898876,1,,OK,"administrative_area_level_1,political"
75,,,,"USA, Egypt, Costa Rica - Everywhere ",,,0,,ZERO_RESULTS,
76,GEOMETRIC_CENTER,"Fayetteville, AR 72701, USA",ChIJZ72BuBpvyYcRwWRD0fsm6gw,Ticket office,36.050606,-94.181281,1,72701,OK,"establishment,point_of_interest,store,university"
77,APPROXIMATE,"Ontario, Canada",ChIJrxNRX7IFzkwRCR5iKVZC-HA,"Ontario, Canada",51.253775,-85.323214,1,,OK,"administrative_area_level_1,political"
78,APPROXIMATE,"Ontario, Canada",ChIJrxNRX7IFzkwRCR5iKVZC-HA,"Ontario, Canada",51.253775,-85.323214,1,,OK,"administrative_area_level_1,political"
79,APPROXIMATE,"Winnipeg, MB, Canada",ChIJESsa-ftz6lIRZMq5xvoaKis,Winnipeg/Manitoba/Canada,49.895136,-97.1383744,1,,OK,"locality,political"
80,APPROXIMATE,"Washington, DC, USA",ChIJW-T2Wt7Gt4kRKl2I1CJFUsI,"Washington, D.C.",38.9071923,-77.0368707,1,,OK,"locality,political"
81,ROOFTOP,"154 Krog St NE #130, Atlanta, GA 30307, USA",ChIJc-At3QcE9YgRKj833s7uxWQ,Everywhere,33.7589188,-84.3640829,2,30307,OK,"establishment,point_of_interest"
82,APPROXIMATE,"Nan, Thailand",ChIJu20dDgmOJzERwJWGOLGCgAs,,18.7756318,100.7730417,1,,OK,"administrative_area_level_1,political"
83,APPROXIMATE,"Lexington, NC, USA",ChIJf9aquK2ZU4gRBDunOpwK6m8,"Lexington, NC",35.8240265,-80.2533838,1,,OK,"locality,political"
84,APPROXIMATE,"Cleveland, OH, USA",ChIJLWto4y7vMIgRQhhi91XLBO0,"Cleveland, OH",41.49932,-81.6943605,1,,OK,"locality,political"
85,ROOFTOP,"Swimming Pool, L.W. Minor Street, Prairie View, TX 77445, USA",ChIJPU28u_LLRoYRBZodux87Ajk,Swimming pool,30.0927838,-95.992925,3,77445,OK,premise
86,APPROXIMATE,"Van Nuys, Los Angeles, CA, USA",ChIJa-i6-hqXwoARSIjZDHu_cMg,"Van Nuys, CA",34.1898566,-118.451357,1,,OK,"neighborhood,political"
87,APPROXIMATE,"Honolulu, HI, USA",ChIJTUbDjDsYAHwRbJen81_1KEs,"Honolulu, Hawaii, U.S.",21.3069444,-157.8583333,1,,OK,"locality,political"
88,ROOFTOP,"1335 E 5th Ave, Emporia, KS 66801, USA",ChIJ3aeh56tOuYcREvjTN2uJBXs,Street,38.403528,-96.1574909,1,66801,OK,"establishment,point_of_interest"
89,APPROXIMATE,"Indianapolis, IN, USA",ChIJA2p5p_9Qa4gRfOq5QPadjtY,"Indianapolis, IN",39.768403,-86.158068,1,,OK,"locality,political"
90,APPROXIMATE,"New York, NY, USA",ChIJOwg_06VPwokRYv534QaPC8g,New York City,40.7127753,-74.0059728,1,,OK,"locality,political"
91,GEOMETRIC_CENTER,"New York, NY 10011, USA",ChIJMYs3Y71ZwokREN6AKkj9eCo,New York 6 Train,40.7375248,-73.9969781,1,10011,OK,"establishment,point_of_interest,subway_station,transit_station"
92,APPROXIMATE,"Nan, Thailand",ChIJu20dDgmOJzERwJWGOLGCgAs,,18.7756318,100.7730417,1,,OK,"administrative_area_level_1,political"
93,ROOFTOP,"2415 Western Ave, Seattle, WA 98121, USA",ChIJpeBf-U0VkFQR8FW9VgZ1kGQ,"The street block: 2415 Western Ave, Belltown Seattle, WA.",47.6138424,-122.3496066,1,98121,OK,"beauty_salon,establishment,point_of_interest"
94,APPROXIMATE,"Santa Fe, NM, USA",ChIJqVKY50NQGIcRQN-I_XMjkIw,"Santa Fe, New Mexico",35.6869752,-105.937799,1,,OK,"locality,political"
95,ROOFTOP,"600 N University Dr, Pembroke Pines, FL 33024, USA",ChIJ8YwfJ8Go2YgRy4EtTGV7eNw,"Publix, Pembroke Pines, FL",26.0136353,-80.2516204,1,33024,OK,"bakery,establishment,food,grocery_or_supermarket,liquor_store,point_of_interest,store,supermarket"
96,GEOMETRIC_CENTER,"Cubao Quezon City, Manila, Metro Manila, Philippines",ChIJawCU6v3JlzMR9g-n5Pn3YlQ,"Bus. Manila, Philippines",14.6073359,120.9948564,1,,OK,"establishment,point_of_interest"
97,RANGE_INTERPOLATED,"1378 Columbia Rd NW, Washington, DC 20009, USA",Ei4xMzc4IENvbHVtYmlhIFJkIE5XLCBXYXNoaW5ndG9uLCBEQyAyMDAwOSwgVVNB,"1378 Columbia Rd NW , Washington, District of Columbia",38.9273287,-77.0318636,1,20009,OK,street_address
98,APPROXIMATE,"Walworth, London SE17 1DX, UK",ChIJyVOu6WEDdkgRAq_HLgqmroA,"Walworth,London",51.489876,-0.0928969,1,SE17 1DX,OK,"neighborhood,political"
99,ROOFTOP,"2 Rue de l'Hôtel de Ville, 44000 Nantes, France",ChIJMwnIIDrpBUgRRepn1i93qjM,en france dans la ville de nantes,47.2182735,-1.5546068,1,44000,OK,"city_hall,establishment,local_government_office,point_of_interest"
100,GEOMETRIC_CENTER,"Washington, DC 20005, USA",ChIJZ-js-JW3t4kRqPsvqbFVEPU,"McPherson Square bus stop, Washington, DC",38.9012474,-77.032198,1,20005,OK,"establishment,point_of_interest,transit_station"
101,APPROXIMATE,"Minneapolis, MN, USA",ChIJvbt3k5Azs1IRB-56L4TJn5M,"Minneapolis, MN",44.977753,-93.2650108,1,,OK,"locality,political"
102,APPROXIMATE,"Managua, Nicaragua",ChIJC4gH2Q1WcY8RakxPFKL0Xmw,Managua,12.1149926,-86.2361744,1,,OK,"locality,political"
103,APPROXIMATE,"Washington, DC, USA",ChIJW-T2Wt7Gt4kRKl2I1CJFUsI,"Washington, DC",38.9071923,-77.0368707,1,,OK,"locality,political"
104,APPROXIMATE,"Washington, DC, USA",ChIJW-T2Wt7Gt4kRKl2I1CJFUsI,"Washington, DC",38.9071923,-77.0368707,1,,OK,"locality,political"
105,APPROXIMATE,"New York, NY, USA",ChIJOwg_06VPwokRYv534QaPC8g,NYC,40.7127753,-74.0059728,1,,OK,"locality,political"
106,ROOFTOP,"7514 Old White Horse Rd, Greenville, SC 29617, USA",ChIJOfF5GE4xWIgRzGXRNGvt9DE,"Greenville SC, at a rollerskating rink",34.8835758,-82.4682022,1,29617,OK,"establishment,point_of_interest"
107,APPROXIMATE,Nepal,ChIJz2gufcfolTkR3obM0LyaojQ,Nepal,28.394857,84.124008,1,,OK,"country,political"
108,,,,1 incident occurred outside my local library and the other was while I was coming out of the bank ,,,0,,ZERO_RESULTS,
109,APPROXIMATE,"Massachusetts, USA",ChIJ_b9z6W1l44kRHA2DVTbQxkU,MA,42.4072107,-71.3824374,1,,OK,"administrative_area_level_1,political"
110,,,,"Netherlands, on my way home",,,0,,ZERO_RESULTS,
111,ROOFTOP,"398 County St, New Bedford, MA 02740, USA",ChIJh008be3j5IkRppDwws--u7I,near construction site,41.630834,-70.928798,1,2740,OK,"establishment,general_contractor,point_of_interest"
112,APPROXIMATE,"Quezon City, Metro Manila, Philippines",ChIJdXPvQgm6lzMRQD0I_tkymko,"Quezon City, Manila, Philippines",14.6760413,121.0437003,1,,OK,"locality,political"
113,,,,"Tompkins Barracks, Schwetzingen FRG ",,,0,,ZERO_RESULTS,
114,GEOMETRIC_CENTER,"Dolores St, San Francisco, CA, USA",ChIJ6Zfx6hV-j4ARp10ZoiH1Qms,San Francisco's Delores Street,37.7548848,-122.4255411,1,,OK,route
115,APPROXIMATE,"Dublin, Ireland",ChIJL6wn6oAOZ0gRoHExl6nHAAo,Dublin,53.3498053,-6.2603097,1,,OK,"locality,political"
116,GEOMETRIC_CENTER,"Bowery, New York, NY 10002, USA",ChIJ4fAuO4ZZwokR9ytaxyuxLOc,NYC subway,40.7203142,-73.9934421,1,10002,OK,"establishment,point_of_interest,subway_station,transit_station"
117,APPROXIMATE,"Philadelphia, PA, USA",ChIJ60u11Ni3xokRwVg-jNgU9Yk,"Philadelphia, PA",39.9525839,-75.1652215,1,,OK,"locality,political"
118,,,,"Seattle, Austria, Italy",,,0,,ZERO_RESULTS,
119,APPROXIMATE,"Illinois, USA",ChIJGSZubzgtC4gRVlkRZFCCFX8,Illinois,40.6331249,-89.3985283,1,,OK,"administrative_area_level_1,political"
120,APPROXIMATE,"Boston, MA, USA",ChIJGzE9DS1l44kRoOhiASS_fHg,"Boston, MA",42.3600825,-71.0588801,1,,OK,"locality,political"
121,ROOFTOP,"2611 E Douglas Ave, Wichita, KS 67211, USA",ChIJ6RW3V3TjuocRQ7d4S_ci5Pc,A coffee shop ,37.685976,-97.3052162,1,67211,OK,"cafe,establishment,food,point_of_interest,store"
122,ROOFTOP,"727 N Co Rd 599, Luxora, AR 72358, USA",ChIJ4eZTyKtXf4gRSFUVTYuHhKA,AR prison,35.7815299,-89.9634757,1,72358,OK,"establishment,point_of_interest"
123,ROOFTOP,"200 5th Ave, New York, NY 10010, USA",ChIJaeKcEaRZwokRcllXm5cM7J0,"New York City, 5th Ave (near Eataly)",40.7420759,-73.9894906,1,10010,OK,"establishment,food,grocery_or_supermarket,meal_takeaway,point_of_interest,restaurant,store"
124,ROOFTOP,"416 N Water St, Mobile, AL 36602, USA",ChIJzT9foilQmogRvK2cd1qAAlE,"Mobile, AL, USA/Exxon station",30.6997559,-88.0446388,1,36602,OK,"establishment,gas_station,point_of_interest"
125,APPROXIMATE,"Buena Park, CA, USA",ChIJK11gE_Qr3YARJf7ozeXun80,"Buena Park, Ca.",33.8674044,-117.9981387,1,,OK,"locality,political"
126,APPROXIMATE,"Santa Ana, CA, USA",ChIJhTCCbJXb3IARvP0eHzqET8c,"Santa Ana, Ca.",33.7454725,-117.867653,1,,OK,"locality,political"
127,GEOMETRIC_CENTER,"NY-2, New York, USA",ChIJIUdSRdIc3okR9JbidWt435g,new york2,42.7539252,-73.5343296,1,,OK,route
128,,,,Watching the ships in a harbor. Northern Minnesota,,,0,,ZERO_RESULTS,
129,ROOFTOP,"528 Klondyke Rd i, Long Beach, MS 39560, USA",ChIJFwvAQZU8nIgRSk_lhZG16Pw,Several places,30.365053,-89.152665,2,39560,OK,"art_gallery,establishment,point_of_interest"
130,APPROXIMATE,"Murfreesboro, TN, USA",ChIJQQEXWw74Y4gR9ne11iq5DIU,"Murfreesboro, TN, USA",35.8456213,-86.39027,1,,OK,"locality,political"
131,APPROXIMATE,"Vancouver, BC, Canada",ChIJs0-pQ_FzhlQRi_OBm-qWkbs,"Vancouver, BC",49.2827291,-123.1207375,1,,OK,"locality,political"
132,ROOFTOP,"Bellingham International Airport, 4255 Mitchell Way, Bellingham, WA 98226, USA",ChIJWYRqu8y8hVQRqlWYIFz4-Dc,"Bellingham Airport, WA",48.7941603,-122.5363851,1,98226,OK,"airport,establishment,point_of_interest"
133,APPROXIMATE,"Vancouver, BC, Canada",ChIJs0-pQ_FzhlQRi_OBm-qWkbs,"Vancouver, BC",49.2827291,-123.1207375,1,,OK,"locality,political"
134,ROOFTOP,"Greyhound, 1150 Station St, Vancouver, BC V6A 4C7, Canada",ChIJ5URWK2RxhlQR_U3bVjee0WQ,Vancouver BC bus,49.2735585,-123.0978397,1,V6A 4C7,OK,"establishment,point_of_interest"
135,APPROXIMATE,"Vancouver, BC, Canada",ChIJs0-pQ_FzhlQRi_OBm-qWkbs,"Vancouver, BC",49.2827291,-123.1207375,1,,OK,"locality,political"
136,APPROXIMATE,"Vancouver, BC, Canada",ChIJs0-pQ_FzhlQRi_OBm-qWkbs,"Vancouver, BC",49.2827291,-123.1207375,1,,OK,"locality,political"
137,APPROXIMATE,"Boston, MA, USA",ChIJGzE9DS1l44kRoOhiASS_fHg,"Boston, MA",42.3600825,-71.0588801,1,,OK,"locality,political"
138,ROOFTOP,"8155 Arroyo Cir, Gilroy, CA 95020, USA",ChIJs1sLBMPjkYARpyk9fWqiFMs,California / store,37.0203712,-121.5633206,1,95020,OK,"clothing_store,establishment,point_of_interest,shoe_store,store"
139,APPROXIMATE,"Nan, Thailand",ChIJu20dDgmOJzERwJWGOLGCgAs,,18.7756318,100.7730417,1,,OK,"administrative_area_level_1,political"
140,ROOFTOP,"5625 Buford Hwy NE, Doraville, GA 30340, USA",ChIJs5zkQd8J9YgRY8QRFzgmNDI,"Doraville, GA, USA-BP Gas Station",33.9047584,-84.2710665,1,30340,OK,"convenience_store,establishment,food,gas_station,point_of_interest,store"
141,ROOFTOP,"4239 W McDowell Rd, Phoenix, AZ 85009, USA",ChIJcxHMwHsUK4cRqiUbRm3G_sk,"Food City supermarket, Phoenix Arizona",33.4650174,-112.1502151,1,85009,OK,"establishment,food,grocery_or_supermarket,point_of_interest,store,supermarket"
142,APPROXIMATE,"Downtown, Sacramento, CA, USA",ChIJQyZcyi7RmoARalMluTk9A78,"Sacramento, CA downtown",38.5777528,-121.4941738,1,,OK,"neighborhood,political"
143,GEOMETRIC_CENTER,"Pacific Ave, Santa Cruz, CA 95060, USA",ChIJux4laJ1qjoARZ3QH3j467_M,"Santa Cruz, Ca (Pacific st.)",36.9700058,-122.0250298,1,95060,OK,route
144,APPROXIMATE,"London, UK",ChIJdd4hrwug2EcRmSrV3Vo6llI,LONDON,51.5073509,-0.1277583,1,,OK,"locality,political"
145,,,,maryland. i was walking home from the store.,,,0,,ZERO_RESULTS,
146,APPROXIMATE,"Sydney NSW, Australia",ChIJP3Sa8ziYEmsRUKgyFmh9AQM,"Sydney, Australia ",-33.8688197,151.2092955,1,,OK,"colloquial_area,locality,political"
147,APPROXIMATE,"London, UK",ChIJdd4hrwug2EcRmSrV3Vo6llI,North East London,51.5073509,-0.1277583,1,,OK,"locality,political"
148,APPROXIMATE,"London, UK",ChIJdd4hrwug2EcRmSrV3Vo6llI,London,51.5073509,-0.1277583,1,,OK,"locality,political"
149,GEOMETRIC_CENTER,"14th, Mer Rouge, LA 71261, USA",ChIJ068vM9KLLoYR5UFnShlWUU0,"14th & H St NE, Washington, DC, USA",32.7869526,-91.7865076,6,71261,OK,route
150,APPROXIMATE,"Los Angeles, CA, USA",ChIJE9on3F3HwoAR9AhGJW_fL-I,"Los Angeles, California, USA. ",34.0522342,-118.2436849,1,,OK,"locality,political"
151,APPROXIMATE,"Graz, Austria",ChIJu2UwF4c1bkcRm93f0tGKjv4,"Graz, Austria",47.070714,15.439504,1,,OK,"locality,political"
152,APPROXIMATE,"Rochdale, UK",ChIJq7M964y4e0gRJ2XaINteiJo,Rochdale town centre,53.6097136,-2.1561,1,,OK,"locality,political"
153,APPROXIMATE,"Snohomish County, WA, USA",ChIJybF97ueemlQRqURMGYrDDmc,"Snohomish County, Washington",48.0329979,-121.8339472,1,,OK,"administrative_area_level_2,political"
154,APPROXIMATE,"Oklahoma City, OK, USA",ChIJgdL4flSKrYcRnTpP0XQSojM,oklahoma city,35.4675602,-97.5164276,1,,OK,"locality,political"
155,APPROXIMATE,"San Antonio, TX, USA",ChIJrw7QBK9YXIYRvBagEDvhVgg,"San Antonio, TX",29.4241219,-98.4936282,1,,OK,"locality,political"
156,APPROXIMATE,"Pennsylvania, USA",ChIJieUyHiaALYgRPbQiUEchRsI,PA,41.2033216,-77.1945247,2,,OK,"administrative_area_level_1,political"
157,APPROXIMATE,"East Nashville, Nashville, TN 37206, USA",ChIJRUEysDVmZIgRtN6DpDGy-k4,"East Nashville, TN ",36.1725564,-86.7597205,1,37206,OK,"colloquial_area,political"
158,GEOMETRIC_CENTER,"Beale St, Memphis, TN, USA",ChIJqQfXwY9-1YcR_oMvpsuvyYo,Beale street in Memphis tn,35.1388606,-90.0450216,1,,OK,route
159,APPROXIMATE,"Paterson, NJ, USA",ChIJgUIFaTT8wokR2iT7x2DRyr4,"Paterson, NJ, USA",40.9167654,-74.171811,1,,OK,"locality,political"
160,APPROXIMATE,"Berkeley, CA, USA",ChIJ00mFOjZ5hYARk-l1ppUV6pQ,"Berkeley, California, USA",37.8715926,-122.272747,1,,OK,"locality,political"
161,APPROXIMATE,"Paterson, NJ, USA",ChIJgUIFaTT8wokR2iT7x2DRyr4,"Paterson, New Jersey, USA",40.9167654,-74.171811,1,,OK,"locality,political"
162,APPROXIMATE,"Berkeley, CA, USA",ChIJ00mFOjZ5hYARk-l1ppUV6pQ,"Berkeley, California, USA",37.8715926,-122.272747,1,,OK,"locality,political"
163,APPROXIMATE,"Albany, CA, USA",ChIJPQVb0tJ4hYARLxEHP9E4sNU,"Albany, California, USA",37.88687,-122.2977475,1,,OK,"locality,political"
164,APPROXIMATE,"Berkeley, CA, USA",ChIJ00mFOjZ5hYARk-l1ppUV6pQ,"Berkeley, California, USA",37.8715926,-122.272747,1,,OK,"locality,political"
165,ROOFTOP,"1006 Connie Rd, Baraboo, WI 53913, USA",ChIJKQvOiglqB4gRqbGKFHH-ADE,"College Campus, Wisconsin",43.4826265,-89.7625477,1,53913,OK,"establishment,point_of_interest,university"
166,APPROXIMATE,"Gilbert, AZ, USA",ChIJQ65F4A2pK4cRfu_Zf5euU2Q,"Gilbert, Arizona",33.3528264,-111.789027,1,,OK,"locality,political"
167,APPROXIMATE,"Gilbert, AZ, USA",ChIJQ65F4A2pK4cRfu_Zf5euU2Q,"Gilbert, Arizona",33.3528264,-111.789027,1,,OK,"locality,political"
168,APPROXIMATE,"Seattle, WA, USA",ChIJVTPokywQkFQRmtVEaUZlJRA,Seattle,47.6062095,-122.3320708,1,,OK,"locality,political"
169,APPROXIMATE,"Chicago, IL, USA",ChIJ7cv00DwsDogRAMDACa2m4K8,Chicago,41.8781136,-87.6297982,1,,OK,"locality,political"
170,ROOFTOP,"Newark Liberty International Airport (EWR), 3 Brewster Rd, Newark, NJ 07114, USA",ChIJ7wzsxeFSwokRhvLXxTe087M,Newark ,40.6895314,-74.1744624,1,7114,OK,"airport,establishment,point_of_interest"
171,ROOFTOP,"3575 Av du Parc Suite 5100, Montréal, QC H2X 3P9, Canada",ChIJJwYgPTYayUwRXo6PQMYgm-I,on thr metro in Montreal,45.5103177,-73.5750636,1,H2X 3P9,OK,"establishment,food,grocery_or_supermarket,point_of_interest,store,supermarket"
172,ROOFTOP,"2721 Nolensville Pike, Nashville, TN 37211, USA",ChIJv_MVfvNlZIgRMknpMgqZtFw,on a well used road,36.1129979,-86.7468112,1,37211,OK,"car_dealer,establishment,finance,point_of_interest,store"
173,APPROXIMATE,United States,ChIJCzYy5IS16lQRQrfeQ5K5Oxw,U.S.,37.09024,-95.712891,1,,OK,"country,political"
174,APPROXIMATE,"Chelsea, AL, USA",ChIJJ773v_c7iYgRTCKQAgAad0I,"Chelsea, Alabama",33.3401108,-86.6302625,1,,OK,"locality,political"
175,ROOFTOP,"3800 Reservoir Rd NW, Washington, DC 20007, USA",ChIJdYdXbD-2t4kRsGEOZ20ymcY,"Alabama, Georgetown DC",38.9118447,-77.0756487,1,20007,OK,"doctor,establishment,health,point_of_interest"
176,APPROXIMATE,Australia,ChIJ38WHZwf9KysRUhNblaFnglM,AUSTRALIA,-25.274398,133.775136,1,,OK,"country,political"
177,ROOFTOP,"7051 Germantown Ave, Philadelphia, PA 19119, USA",ChIJ__47rLy5xokRpAvYWJ-WNCM,On my way home,40.0583833,-75.1892278,1,19119,OK,"establishment,health,point_of_interest"
178,ROOFTOP,"2917 N Cincinnati St, Spokane, WA 99207, USA",ChIJ0bB65tgYnlQRetWVlo67aGg,"work, school, home",47.6851705,-117.398524,1,99207,OK,"establishment,point_of_interest"
179,ROOFTOP,"Cummins Unit, 2540 State Hwy 388, Gould, AR 71643, USA",ChIJrcCe9wnsLIYRtzJlPa5S8Tk,"Varner, AR at AR Dept of Correction Cummins Unit",34.0521395,-91.584016,2,71643,OK,"establishment,point_of_interest"
180,APPROXIMATE,"Liverpool, NY, USA",ChIJVXe5VkHu2YkRHJYNrF12AeM,Liverpool,43.106456,-76.2177046,3,,OK,"locality,political"
181,APPROXIMATE,"Richmond, VA, USA",ChIJ7cmZVwkRsYkRxTxC4m0-2L8,"Richmond, Virginia, USA",37.5407246,-77.4360481,1,,OK,"locality,political"
182,ROOFTOP,"402 W 47th St, New York, NY 10036, USA",ChIJ77bnZVFYwokRvsG41lMRBa0,Grocery Store and Urban Streets,40.7616567,-73.9907875,1,10036,OK,"establishment,food,grocery_or_supermarket,point_of_interest,store"
183,ROOFTOP,"402 W 47th St, New York, NY 10036, USA",ChIJ77bnZVFYwokRvsG41lMRBa0,Grocery Store and Urban Streets,40.7616567,-73.9907875,1,10036,OK,"establishment,food,grocery_or_supermarket,point_of_interest,store"
184,GEOMETRIC_CENTER,"W Colfax Ave, Lakewood, CO, USA",Eh9XIENvbGZheCBBdmUsIExha2V3b29kLCBDTywgVVNB,"Lakewood, Colorado, Colfax Avenue",39.7401162,-105.1104331,1,,OK,route
185,GEOMETRIC_CENTER,"S Washington St, DeRidder, LA 70634, USA",ChIJ0ejybcWyO4YRnF7JzhNtX4w,"washington stret, DERIDDER, Louisiana 70634 ",30.8417881,-93.2866894,3,70634,OK,route
186,APPROXIMATE,United Kingdom,ChIJqZHHQhE7WgIReiWIMkOg-MQ,United Kingdom,55.378051,-3.435973,1,,OK,"country,political"
187,,,,"Cento St., Loyola Corner, Sampaloc, Manila, Philippines",,,0,,ZERO_RESULTS,
188,ROOFTOP,"841 Swan St, Victoria, BC V8X 2Z2, Canada",ChIJ30G5ybxzj1QR-c0k6zniNHs,The street/ road/ pavement,48.4601435,-123.371968,1,V8X 2Z2,OK,"establishment,general_contractor,point_of_interest"
189,ROOFTOP,"213 S Alma School Rd, Mesa, AZ 85210, USA",ChIJgcgo-_enK4cRwOU4Scd20uU,School/ road/ pavement ,33.4107132,-111.8547175,1,85210,OK,"establishment,general_contractor,point_of_interest"
190,GEOMETRIC_CENTER,"SW Morgan St & 35th Ave SW, Seattle, WA 98126, USA",EjJTVyBNb3JnYW4gU3QgJiAzNXRoIEF2ZSBTVywgU2VhdHRsZSwgV0EgOTgxMjYsIFVTQQ,"Seattle, WA. 35th and Morgan",47.5446772,-122.376443,1,98126,OK,intersection
191,,,,"Village Kalali,Tehsil ch.dadri,Distt.Bhiwani haryana,india",,,0,,ZERO_RESULTS,
192,APPROXIMATE,"Indianapolis, IN, USA",ChIJA2p5p_9Qa4gRfOq5QPadjtY,"Indianapolis, Indiana ",39.768403,-86.158068,1,,OK,"locality,political"
193,ROOFTOP,"592 E 16th St, Yuma, AZ 85365, USA",ChIJofMssuT11oAR8ZKEI5VA8RQ,gas station in Arizona,32.6992856,-114.6132277,1,85365,OK,"convenience_store,establishment,finance,food,gas_station,point_of_interest,store"
194,ROOFTOP,"School Yard, 2A High St, Wickwar, Wotton-under-Edge GL12 8NE, UK",ChIJL3gS37eecUgR2GLx3Ny1qbo,School Yard,51.5956429,-2.4003892,1,GL12 8NE,OK,street_address
195,APPROXIMATE,"Downtown, Los Angeles, CA, USA",ChIJAf09JTTGwoARIKmlGd9S_iY,Downtown LA,34.040713,-118.2467693,1,,OK,"neighborhood,political"
196,APPROXIMATE,"Downtown, Los Angeles, CA, USA",ChIJAf09JTTGwoARIKmlGd9S_iY,Downtown LA,34.040713,-118.2467693,1,,OK,"neighborhood,political"
197,,,,Athens Greece bus line 40 Syggrou-Fix bus stop,,,0,,ZERO_RESULTS,
198,ROOFTOP,"Temple Terrace Hilltop Dog Park, 9420 Harney Rd, Tampa, FL 33637, USA",ChIJS1rPLP7IwogR4mwhC0QJSjg,"Tampa, Temple Terrace Thonotosassa, Valrico Fl",28.0365564,-82.3459249,1,33637,OK,"establishment,park,point_of_interest"
199,,,,"bus,on the way, and chinema hall",,,0,,ZERO_RESULTS,
200,APPROXIMATE,"Philadelphia, PA, USA",ChIJ60u11Ni3xokRwVg-jNgU9Yk,Philadelphia,39.9525839,-75.1652215,1,,OK,"locality,political"
201,APPROXIMATE,"Kathmandu 44600, Nepal",ChIJv6p7MIoZ6zkR6rGN8Rt8E7U,"city, kathmandu",27.7172453,85.3239605,1,44600,OK,"locality,political"
202,APPROXIMATE,"Clarksville, TN, USA",ChIJ5af-L0DOZIgRHicF6Q-xQas,"Clarksville, TN",36.5297706,-87.3594528,1,,OK,"locality,political"
203,ROOFTOP,"1000 E 41st St, Austin, TX 78751, USA",ChIJ0UqGVvW1RIYR4pvzFid5JkA,"Hancock Shopping Center in Austin, TX",30.3004727,-97.7199554,1,78751,OK,"establishment,point_of_interest,shopping_mall"
204,APPROXIMATE,"Kabul, Afghanistan",ChIJSW0ePExp0TgRKUQheDVH3-s,"Kabul, Afghanistan",34.5553494,69.207486,1,,OK,"locality,political"
205,APPROXIMATE,"St Louis Park, MN, USA",ChIJIw_zeAAg9ocRNCg_O27jJ1Y,St Louis Park MN,44.9597376,-93.3702186,1,,OK,"locality,political"
206,APPROXIMATE,"Louisville, KY, USA",ChIJEdVbsxoLaYgRMv1xICi009Q,Louisville,38.2526647,-85.7584557,1,,OK,"locality,political"
207,ROOFTOP,"2100 W 55th St S, Wichita, KS 67217, USA",ChIJjbDw2RPmuocR5X7VWWmTsgI,campus,37.5937844,-97.3677841,1,67217,OK,"establishment,point_of_interest,school"
208,APPROXIMATE,"Columbus, OH, USA",ChIJcd6QucGJOIgRM7Wxz_hmMuQ,"Columbus, OH",39.9611755,-82.9987942,1,,OK,"locality,political"
209,APPROXIMATE,"Bristol, UK",ChIJYdizgWaDcUgRH9eaSy6y5I4,"Bristol, UK",51.454513,-2.58791,1,,OK,"locality,political"
210,ROOFTOP,"100 S Glenwood Ave, Columbia, MO 65203, USA",ChIJWwPk1zO23IcRUPeuBXMKsok,All over uSA,38.9505225,-92.3467572,1,65203,OK,"establishment,point_of_interest"
211,APPROXIMATE,"Worthing, UK",ChIJF1OAYAWYdUgRNPOo9rKRdHY,"Worthing, England",50.81787,-0.372882,1,,OK,"locality,political"
212,APPROXIMATE,"Upper West Side, New York, NY, USA",ChIJ1bsw-4JYwokRbMTfRoskJl4,"Upper West Side, New York, NY",40.7870106,-73.9753676,1,,OK,"neighborhood,political"
213,APPROXIMATE,"Train, Germany",ChIJ7xY68Q1LnkcR0440k_gL1d4,Train,48.7303689,11.8301248,1,,OK,"locality,political"
214,APPROXIMATE,"Nan, Thailand",ChIJu20dDgmOJzERwJWGOLGCgAs,,18.7756318,100.7730417,1,,OK,"administrative_area_level_1,political"
215,APPROXIMATE,"Toronto, ON, Canada",ChIJpTvG15DL1IkRd8S0KlBVNTI,"Toronto, Ontario",43.653226,-79.3831843,1,,OK,"locality,political"
216,GEOMETRIC_CENTER,"School, Herrin, IL 62948, USA",ChIJw1IVEi4jd4gRSeD0lHzmEd8,School,37.810937,-89.0474432,1,62948,OK,route
217,ROOFTOP,"9919 Westheimer Rd, Houston, TX 77042, USA",ChIJ0_kj8TvDQIYRqKtGFHcHbZk,"houston TX, in a kroger store",29.7363167,-95.5452526,1,77042,OK,"establishment,food,grocery_or_supermarket,point_of_interest,store"
218,APPROXIMATE,"Another Place, MD 20685, USA",ChIJzSfHyT18t4kRGsFhMaDc240,different places,38.4417902,-76.5232874,2,20685,OK,"locality,political"
219,APPROXIMATE,"Berkeley, CA, USA",ChIJ00mFOjZ5hYARk-l1ppUV6pQ,Berkley/CA/United states,37.8715926,-122.272747,1,,OK,"locality,political"
220,GEOMETRIC_CENTER,"Coastal Mall Terminal Rd, Parañaque, Metro Manila, Philippines",ChIJKTKUpajOlzMRmnCrDENrJO4,"Coastal Mall/ Bus Terminal, Philippines",14.5161955,120.9927758,1,,OK,"bus_station,establishment,point_of_interest,transit_station"
221,APPROXIMATE,"Madrid, Spain",ChIJgTwKgJcpQg0RaSKMYcHeNsQ,"Madrid, Spain",40.4167754,-3.7037902,1,,OK,"locality,political"
222,,,,"In front of Dick's on Broadway, Capitol Hill, Seattle and in front of Rite Aid, Capitol Hill, Seattle",,,0,,ZERO_RESULTS,
223,APPROXIMATE,"Gretna, LA 70056, USA",ChIJf33_gy6nIIYRSX1WkBcKzFk,70056,29.8930874,-90.0279867,1,70056,OK,postal_code
224,APPROXIMATE,"Seattle, WA, USA",ChIJVTPokywQkFQRmtVEaUZlJRA,"Seattle, WA",47.6062095,-122.3320708,1,,OK,"locality,political"
225,GEOMETRIC_CENTER,"University, Austin, TX 78704, USA",ChIJg9mGd-y0RIYRDSxiew3h0jY,university,30.2307338,-97.7555514,4,78704,OK,route
226,APPROXIMATE,Australia,ChIJ38WHZwf9KysRUhNblaFnglM,Australia,-25.274398,133.775136,1,,OK,"country,political"
227,APPROXIMATE,"New York, NY, USA",ChIJOwg_06VPwokRYv534QaPC8g, NYC,40.7127753,-74.0059728,1,,OK,"locality,political"
228,ROOFTOP,"1 Cedar Point Dr, Sandusky, OH 44870, USA",ChIJt_YJNEVEOogRp3VYcxU9Da4,amusement park in Ohio,41.482207,-82.6835206,1,44870,OK,"amusement_park,establishment,point_of_interest"
229,ROOFTOP,"Burgess Park, 701 Laurel St, Menlo Park, CA 94025, USA",ChIJDWcc4LKkj4ARpSwFeCCXidg,Burgess Park,37.45197,-122.1769357,1,94025,OK,"establishment,park,point_of_interest"
230,ROOFTOP,"710 Santa Monica Blvd, Santa Monica, CA 90401, USA",ChIJxzgULMykwoARqCEz2wWVCxc,My neighborhood,34.0188564,-118.4917947,1,90401,OK,"establishment,point_of_interest"
231,APPROXIMATE,"Salem, OR, USA",ChIJY5xLvPz-v1QRwlcDj-ApNPk,"Salem, Oregon ",44.9428975,-123.0350963,1,,OK,"locality,political"
232,APPROXIMATE,"Seattle, WA, USA",ChIJVTPokywQkFQRmtVEaUZlJRA,Seattle,47.6062095,-122.3320708,1,,OK,"locality,political"
233,APPROXIMATE,"Dunedin, New Zealand",ChIJPVFfD-DkK6gRQZl5hIbvAAU,"Dunedin, New Zealand",-45.8787605,170.5027976,1,,OK,"locality,political"
234,APPROXIMATE,Sri Lanka,ChIJnR5a9jxZ4joRjNPiALSkPeE,Sri Lanka,7.873054,80.771797,1,,OK,"country,political"
235,ROOFTOP,"1782 NY-73, Keene Valley, NY 12943, USA",ChIJp72-vRnpykwRnuTarK4SD28,"In my mothers home neightborhood ,my new home n neightborhood",44.1894874,-73.7856956,2,12943,OK,"establishment,health,point_of_interest"
236,APPROXIMATE,"Houston, TX, USA",ChIJAYWNSLS4QIYROwVl894CDco,Houston,29.7604267,-95.3698028,1,,OK,"locality,political"
237,ROOFTOP,"2140 Bryan Valley Commercial Dr, O'Fallon, MO 63366, USA",ChIJOcSSPj7Q3ocR1vJ8s_rvej8,"O'fallon, MO, USA. In my neighborhood ",38.7963802,-90.7376849,2,63366,OK,"establishment,point_of_interest"
238,APPROXIMATE,"Nan, Thailand",ChIJu20dDgmOJzERwJWGOLGCgAs,,18.7756318,100.7730417,1,,OK,"administrative_area_level_1,political"
239,APPROXIMATE,"England, UK",ChIJ39UebIqp0EcRqI4tMyWV4fQ,england,52.3555177,-1.1743197,1,,OK,"administrative_area_level_1,political"
240,APPROXIMATE,"State College, PA, USA",ChIJc9s7wZmozokRkYA8g8LG4Zw,State College/PA/Centre,40.7933949,-77.8600012,1,,OK,"locality,political"
241,ROOFTOP,"600 E Basin Rd, Wilmington Manor, DE 19720, USA",ChIJ6aJ93qIDx4kRHQKeNaTmOYI,"New Castle, Delaware at Rita's Water Ice",39.6728182,-75.5846091,1,19720,OK,"establishment,food,point_of_interest,restaurant"
242,ROOFTOP,"581 Massachusetts Ave, Cambridge, MA 02139, USA",ChIJ7atu-lN344kRklcYmjjQopQ,"Parking lot near H Mart, corner of Essex Street and Bishop Allen Drive, Cambridge, Massachusetts, USA",42.3650305,-71.1026026,1,2139,OK,"establishment,food,grocery_or_supermarket,point_of_interest,store"
243,,,,8th Ave~ one day they didn't even look up,,,0,,ZERO_RESULTS,
244,APPROXIMATE,"Saskatoon, SK, Canada",ChIJK5ntR7_2BFMRkCZ3lTKeBAU,"Saskatoon, Saskatchewan, Canada",52.1332144,-106.6700458,1,,OK,"locality,political"
245,ROOFTOP,"6500 St Stephens Dr, Austin, TX 78746, USA",ChIJpfAQ4xo1W4YRMBUz3kaTZak,A summer camp,30.3277353,-97.8190012,1,78746,OK,"establishment,point_of_interest"
246,ROOFTOP,"22833 Bothell Everett Hwy, Bothell, WA 98021, USA",ChIJ0Rb3t6kPkFQRSsHPnRDtTQ0,"a QFC in Bothell, Washington, USA",47.7898066,-122.2163661,2,98021,OK,"establishment,food,grocery_or_supermarket,point_of_interest,store"
247,ROOFTOP,"Millennium Park, 201 E Randolph St, Chicago, IL 60602, USA",ChIJA5xPiqYsDogRBBCptdwsGEQ,"city(chicago), Millennium Park ",41.8825524,-87.6225514,1,60602,OK,"establishment,park,point_of_interest"
248,APPROXIMATE,"Brighton, Boston, MA, USA",ChIJxTFcO0h444kRGCt654rYf_0,"Brighton, MA",42.3463503,-71.1626756,1,,OK,"locality,neighborhood,political"
249,APPROXIMATE,"Brussels, Belgium",ChIJ_58PdIbEw0cRMIBML6uZAAE,Brussels,50.8503463,4.3517211,1,,OK,"administrative_area_level_1,locality,political"
250,APPROXIMATE,"San Francisco, CA, USA",ChIJIQBpAG2ahYAR_6128GcTUEo,"San Francisco, CA",37.7749295,-122.4194155,1,,OK,"locality,political"
251,GEOMETRIC_CENTER,"Washington St & Logan St, Frederick, MD 21701, USA",EjJXYXNoaW5ndG9uIFN0ICYgTG9nYW4gU3QsIEZyZWRlcmljaywgTUQgMjE3MDEsIFVTQQ,"Washington, DC (intersection near Logan Circle)",39.4103303,-77.4187889,1,21701,OK,intersection
252,APPROXIMATE,"London, UK",ChIJdd4hrwug2EcRmSrV3Vo6llI,London,51.5073509,-0.1277583,1,,OK,"locality,political"
253,GEOMETRIC_CENTER,"Pocket 52, Kalkaji, New Delhi, Delhi, India",ChIJxxUbFN_jDDkRgdgpBM35FKk,Delhi Gurgaon and Bangalore,28.5373559,77.259502,2,,OK,"establishment,point_of_interest"
254,APPROXIMATE,"Nan, Thailand",ChIJu20dDgmOJzERwJWGOLGCgAs,,18.7756318,100.7730417,1,,OK,"administrative_area_level_1,political"
255,GEOMETRIC_CENTER,"Brooklyn, NY 11217, USA",ChIJ5c2f-a1bwokR9Izugi-zBqc,"Brooklyn, New York 4 Train",40.684901,-73.97768,1,11217,OK,"establishment,point_of_interest,train_station,transit_station"
256,,,,"Dublin, George's street and then up near Rathmines, respectively",,,0,,ZERO_RESULTS,
257,ROOFTOP,"201 S Jackson St, Seattle, WA 98104, USA",ChIJo6NnSrtqkFQREBZ3UHx5epI,"Seattle WA, King County Metro",47.599134,-122.3314145,1,98104,OK,"establishment,local_government_office,point_of_interest"
258,APPROXIMATE,"Wheaton, IL, USA",ChIJx--D-eJTDogRWm0RjFuwPaA,"Wheaton, Illinois",41.8661403,-88.1070127,1,,OK,"locality,political"
259,APPROXIMATE,"Indiana, USA",ChIJHRv42bxQa4gRcuwyy84vEH4,"Indiana, USA",40.2671941,-86.1349019,1,,OK,"administrative_area_level_1,political"
260,APPROXIMATE,"Coimbatore, Tamil Nadu, India",ChIJtRyXL69ZqDsRgtI-GB7IwS8,coimbatore city,11.0168445,76.9558321,1,,OK,"locality,political"
261,APPROXIMATE,"Colorado, USA",ChIJt1YYm3QUQIcR_6eQSTGDVMc,Colorado,39.5500507,-105.7820674,1,,OK,"administrative_area_level_1,political"
262,APPROXIMATE,"Nan, Thailand",ChIJu20dDgmOJzERwJWGOLGCgAs,,18.7756318,100.7730417,1,,OK,"administrative_area_level_1,political"
263,ROOFTOP,"Calz. San Juan de Aragón 22, Villa Gustavo A. Madero, 07070 Ciudad de México, CDMX, Mexico",ChIJZ2o70oL50YURgjsRB3lo4vM,small village in Mexico,19.4840314,-99.1120988,1,7070,OK,"establishment,food,home_goods_store,point_of_interest,store"
264,,,,"Liverpool, Leicester, Birmingham, Coventry. On the street, in shops/supermarkets",,,0,,ZERO_RESULTS,
265,ROOFTOP,"3401 4th St SE, Washington, DC 20032, USA",ChIJgTGbvAK6t4kR-cmkDNuR8LM,4TH STREET SE WASINGTON DC. IN FRONT OF BALLOU HIGH SCHOOL.,38.8393559,-77.0014227,1,20032,OK,"establishment,point_of_interest,school"
266,APPROXIMATE,"Las Vegas, NV, USA",ChIJ0X31pIK3voARo3mz1ebVzDo,Las Vegas,36.1699412,-115.1398296,1,,OK,"locality,political"
267,APPROXIMATE,"California, MD, USA",ChIJA-aOAy5it4kRwDJyjFUZEgc,"California, MD",38.3004029,-76.5074542,1,,OK,"locality,political"
268,APPROXIMATE,"Faridabad, Haryana, India",ChIJsSSk9RXcDDkR8uBQyHYF9eQ,Faridabad,28.4089123,77.3177894,1,,OK,"locality,political"
269,GEOMETRIC_CENTER,"East 125th St & Lexington Ave, New York, NY 10035, USA",ChIJj2aaPwr2wokR3HRM4ACiMAs,NYC lex line subway,40.8044031,-73.9372212,1,10035,OK,"establishment,point_of_interest,subway_station,transit_station"
270,APPROXIMATE,"Cairo, Cairo Governorate, Egypt",ChIJ674hC6Y_WBQRujtC6Jay33k,"Cairo, Egypt",30.0444196,31.2357116,1,,OK,"locality,political"
271,GEOMETRIC_CENTER,"Pond St, Waltham, MA 02451, USA",ChIJOXlp7dWC44kRoLspBgN_5XM,"556 mbta bus line, Waltham&Newton, MA to Boston, MA.",42.3794178,-71.2390932,1,2451,OK,"establishment,point_of_interest"
272,ROOFTOP,"4555 Central Dr, Stone Mountain, GA 30083, USA",ChIJ6X_i9MOo9YgR1xr37cKCYlo,"Stone Mountain High School (Stone Mountain, GA)",33.8104749,-84.2019825,2,30083,OK,"establishment,point_of_interest,school"
273,ROOFTOP,"617 N State St, Chicago, IL 60654, USA",ChIJ8xajea0sDogRjrYnhU_Dl_U,A tea shop near my house,41.8929597,-87.6278966,1,60654,OK,"establishment,food,point_of_interest,store"
274,ROOFTOP,"635 E Baseline Rd, Phoenix, AZ 85042, USA",ChIJh20aZxQQK4cRkHNSFfI-ukA,Popat Road,33.3767149,-112.0679738,2,85042,OK,"dentist,establishment,health,point_of_interest"
275,ROOFTOP,"33650 CO-131, Toponas, CO 80479, USA",ChIJlYlvAHUeQocR75Z7AFCKhQM,At my local library,40.0718285,-106.8357884,1,80479,OK,"establishment,library,point_of_interest"
276,GEOMETRIC_CENTER,"Forest Park Dr & Cicero Rd, Noblesville, IN 46060, USA",EjZGb3Jlc3QgUGFyayBEciAmIENpY2VybyBSZCwgTm9ibGVzdmlsbGUsIElOIDQ2MDYwLCBVU0E,Cicero and Forest Park,40.0498448,-86.015795,1,46060,OK,intersection
277,APPROXIMATE,"Albury NSW 2640, Australia",ChIJpz7zaXxfIWsRACdEkLQJBgU,"albury, NSW, Australia",-36.0737293,146.9135418,1,2640,OK,"locality,political"
278,APPROXIMATE,Canada,ChIJ2WrMN9MDDUsRpY9Doiq3aJk,Canada,56.130366,-106.346771,1,,OK,"country,political"
279,APPROXIMATE,"Eindhoven, Netherlands",ChIJn8N5VRvZxkcRmLlkgWTSmvM,"Eindhoven, The Netherlands",51.441642,5.4697225,1,,OK,"locality,political"
280,APPROXIMATE,"Denver, CO, USA",ChIJzxcfI6qAa4cR1jaKJ_j0jhE,"Denver, CO",39.7392358,-104.990251,1,,OK,"locality,political"
281,ROOFTOP,"Denver International Airport (DEN), 8500 Peña Blvd, Denver, CO 80249, USA",ChIJ_0T_mCp_bIcRapy1NbQ7WEk,Denver to Miami. Currently ,39.8560963,-104.6737376,1,80249,OK,"airport,establishment,point_of_interest"
282,APPROXIMATE,"Queens, NY, USA",ChIJK1kKR2lDwokRBXtcbIvRCUE,"Queens, NY",40.7282239,-73.7948516,1,,OK,"political,sublocality,sublocality_level_1"
283,APPROXIMATE,"San Francisco, CA, USA",ChIJIQBpAG2ahYAR_6128GcTUEo,San Francisco ,37.7749295,-122.4194155,1,,OK,"locality,political"
284,ROOFTOP,"12975 W Jefferson Blvd, Los Angeles, CA 90066, USA",ChIJUxk1ipuwwoAR2zi8YfVpvig,Marina Del Rey Home Depot,33.9767615,-118.4236801,2,90066,OK,"establishment,furniture_store,hardware_store,home_goods_store,point_of_interest,store"
285,ROOFTOP,"100 N Forest Ave, Brazil, IN 47834, USA",ChIJI7jw5DcRbYgR-66afgwW7HA,On the streets,39.5250043,-87.1254155,1,47834,OK,"church,establishment,place_of_worship,point_of_interest"
286,APPROXIMATE,"New Jersey, USA",ChIJn0AAnpX7wIkRjW0_-Ad70iw,New jersey,40.0583238,-74.4056612,1,,OK,"administrative_area_level_1,political"
287,APPROXIMATE,"Oklahoma City, OK, USA",ChIJgdL4flSKrYcRnTpP0XQSojM,"Oklahoma City, OK",35.4675602,-97.5164276,1,,OK,"locality,political"
288,,,,3rd floor of Texas Southern University 3rd floor science building in front of Environmental Toxicology department,,,0,,ZERO_RESULTS,
289,GEOMETRIC_CENTER,"Commissioner St, Johannesburg, South Africa",ChIJbV9PMpsOlR4R2pUYfc02vqc,johannesbug in the street,-26.2041691,28.0535243,1,,OK,route
290,APPROXIMATE,"Hyderabad, Telangana, India",ChIJx9Lr6tqZyzsRwvu6koO3k64,"Hyderabad, Telangana, India",17.385044,78.486671,1,,OK,"locality,political"
291,APPROXIMATE,"Brooklyn, NY, USA",ChIJCSF8lBZEwokRhngABHRcdoI,"Brooklyn, NY",40.6781784,-73.9441579,1,,OK,"political,sublocality,sublocality_level_1"
292,,,,On your Facebook page,,,0,,ZERO_RESULTS,
293,ROOFTOP,"1 Raymond Plaza West & Market Street, Newark, NJ 07102, USA",ChIJmZjGPYRTwokRdyJ6BbmRSAQ,Newark Penn Station,40.734647,-74.164431,1,7102,OK,"establishment,point_of_interest,train_station,transit_station"
294,ROOFTOP,"715 Main St, Altoona, KS 66710, USA",ChIJmbKobz5KuIcRboEF3Mv6YgM,City,37.526328,-95.6623478,1,66710,OK,"establishment,local_government_office,point_of_interest"
295,,,,"Illinois, street intersection while in my car.",,,0,,ZERO_RESULTS,
296,,,,Checkouts at the grocery store in town,,,0,,ZERO_RESULTS,
297,APPROXIMATE,"Colton, CA, USA",ChIJ7Yxx34WmxIARPx7pEHVWSmc,colton ca united state ,34.0739016,-117.3136547,1,,OK,"locality,political"
298,APPROXIMATE,"O‘ahu, Hawaii, USA",ChIJA2ty2zJmAHwRw8tvkGl9WNk,Oahu,21.4389123,-158.0000565,1,,OK,"establishment,natural_feature"
299,ROOFTOP,"4201 N Shiloh Dr, Fayetteville, AR 72703, USA",ChIJCwcc5IpryYcR5rrP9Q9d1pI,Mall,36.1283046,-94.1480042,1,72703,OK,"establishment,point_of_interest,shopping_mall"
300,APPROXIMATE,"Buenos Aires, Argentina",ChIJvQz5TjvKvJURh47oiC6Bs6A,"Buenos Aires, Argentina",-34.6036844,-58.3815591,1,,OK,"locality,political"
301,APPROXIMATE,"New York, NY, USA",ChIJOwg_06VPwokRYv534QaPC8g,New York City,40.7127753,-74.0059728,1,,OK,"locality,political"
302,,,,"On the street, outside my local train station. ",,,0,,ZERO_RESULTS,
303,APPROXIMATE,"California, USA",ChIJPV4oX_65j4ARVW8IJ6IJUYs,California ,36.778261,-119.4179324,1,,OK,"administrative_area_level_1,political"
304,APPROXIMATE,"Scarborough, UK",ChIJu4rjGUslf0gRx3qkeQFsVGk,scarbough   united kingdom ,54.283113,-0.399752,1,,OK,"locality,political"
305,APPROXIMATE,"Las Vegas, NV, USA",ChIJ0X31pIK3voARo3mz1ebVzDo,"Las Vegas, NV",36.1699412,-115.1398296,1,,OK,"locality,political"
306,APPROXIMATE,"Mumbai, Maharashtra, India",ChIJwe1EZjDG5zsRaYxkjY_tpF0,mumbai ,19.0759837,72.8776559,1,,OK,"locality,political"
307,APPROXIMATE,"Mumbai, Maharashtra, India",ChIJwe1EZjDG5zsRaYxkjY_tpF0,mumbai ,19.0759837,72.8776559,1,,OK,"locality,political"
308,APPROXIMATE,"Downtown, Detroit, MI, USA",ChIJD_xeojEtO4gR1L3fFlt6TBE,Downtown Detroit,42.3331454,-83.0495622,1,,OK,"neighborhood,political"
309,GEOMETRIC_CENTER,"93A Empire Estate Building., A.K. Marg, Kemps Corner, Mumbai, Maharashtra 400036, India",ChIJuZYLRHXO5zsRJTZUsi25d_Y,"      On the road , India",18.9643285,72.8053109,1,400036,OK,"establishment,point_of_interest"
310,ROOFTOP,"5401 Montana Ave, El Paso, TX 79903, USA",ChIJiyk7MDBa54YRvpbpAsTkubg,Walgreens Montana y Chelsea El Paso Texas ,31.7840831,-106.4249561,1,79903,OK,"clothing_store,convenience_store,establishment,food,health,point_of_interest,store"
311,APPROXIMATE,Germany,ChIJa76xwh5ymkcRW-WRjmtd6HU,Germany,51.165691,10.451526,1,,OK,"country,political"
312,GEOMETRIC_CENTER,"Live Oak Rd, Oklahoma City, OK 73120, USA",ChIJvceikJscsocRicpqzj9WOPo,"The road where I live, mall, the city",35.5958724,-97.5823367,2,73120,OK,route
313,APPROXIMATE,"Tampa, FL, USA",ChIJ4dG5s4K3wogRY7SWr4kTX6c,Tampa Florida,27.950575,-82.4571776,1,,OK,"locality,political"
314,APPROXIMATE,"Tampa, FL, USA",ChIJ4dG5s4K3wogRY7SWr4kTX6c,Tampa Florida,27.950575,-82.4571776,1,,OK,"locality,political"
315,APPROXIMATE,Germany,ChIJa76xwh5ymkcRW-WRjmtd6HU,germany,51.165691,10.451526,1,,OK,"country,political"
316,,,,manhattan kansas/kansas city where ever I move to,,,0,,ZERO_RESULTS,
317,ROOFTOP,"226 13th St, Altoona, KS 66710, USA",ChIJg6wiN0dKuIcRGfDCZ4rgeJs,store,37.5297738,-95.6599249,1,66710,OK,"convenience_store,establishment,food,point_of_interest,store"
318,ROOFTOP,"736 Eastern Ave, Bellwood, IL 60104, USA",ChIJVV8capVKDogRK_oCdaNdhUQ,it happened in Bellwood illinois,41.8812262,-87.8730245,2,60104,OK,"establishment,point_of_interest"
319,APPROXIMATE,"Winnemucca, NV 89445, USA",ChIJKZ4phutdoIARJp4DyGP2yI8,"Winnemucca, NV, USA",40.9729584,-117.7356849,1,89445,OK,"locality,political"
320,APPROXIMATE,"New York, NY, USA",ChIJOwg_06VPwokRYv534QaPC8g,New York,40.7127753,-74.0059728,1,,OK,"locality,political"
321,ROOFTOP,"1901 E 20th St, Joplin, MO 64804, USA",ChIJBwVUKq97yIcRueM2YIjJFjs,Public Library,37.0695621,-94.4940945,1,64804,OK,"establishment,library,point_of_interest"
322,GEOMETRIC_CENTER,"Spokane Ct, Tualatin, OR 97062, USA",ChIJuReSPGJtlVQRijN3lEl8vUk,"Hillsboro, Oregon, Spokane, Washington",45.3825963,-122.7814744,1,97062,OK,route
323,ROOFTOP,"424 Howe Ave, Sacramento, CA 95825, USA",ChIJAV4KTVjamoARS2nMpMAxg1k,"Sacramento, CA, safeway store on fair oaks and Howe avenue.",38.573296,-121.4132211,1,95825,OK,"establishment,food,grocery_or_supermarket,point_of_interest,store"
324,ROOFTOP,"AE-628, A.E. Block sector 1, AE Block, Sector 1, Salt Lake City, Kolkata, West Bengal 700064, India",ChIJvez_1vF1AjoRT_uQWp-0nmM,"Kolkata, India, on the way to a departmental store.",22.600348,88.414178,1,700064,OK,"department_store,establishment,point_of_interest,store"
325,APPROXIMATE,"Winton, CA 95388, USA",ChIJO5CRD6sUkYARnTkY8DfcKOk,Winton,37.389383,-120.6132516,2,95388,OK,"locality,political"
326,APPROXIMATE,"Pasto, Narino, Colombia",ChIJcyq5YYfULo4RIqXDbFZoo0Q,Pasto/Nariño/Colombia,1.2058837,-77.285787,1,,OK,"locality,political"
327,ROOFTOP,"125 W Mountain St, Fayetteville, AR 72701, USA",ChIJ-cN_HdhuyYcRjczDQ6vB3aI,City sidewalk,36.0616429,-94.161618,1,72701,OK,"establishment,local_government_office,point_of_interest"
328,ROOFTOP,"1501 W 7th St, Joplin, MO 64801, USA",ChIJUYGo_Fd6yIcRYVqX1lc7mo0,Subway,37.0847229,-94.5301563,1,64801,OK,"establishment,food,point_of_interest,restaurant"
329,APPROXIMATE,"Oxford, PA 19363, USA",ChIJXfHhCa5MxokRDLZtLjtkrUM,"Oxford, PA USA",39.785386,-75.9788349,1,19363,OK,"locality,political"
330,,,,"On the 101, just at the Las Virgenes exit. ",,,0,,ZERO_RESULTS,
331,APPROXIMATE,"California, USA",ChIJPV4oX_65j4ARVW8IJ6IJUYs,California,36.778261,-119.4179324,1,,OK,"administrative_area_level_1,political"
332,APPROXIMATE,"Cartersville, GA, USA",ChIJb0RvQg5P9YgRTqNXjGpW55A,"Cartersville,Ga",34.1650972,-84.7999382,1,,OK,"locality,political"
333,APPROXIMATE,"Nan, Thailand",ChIJu20dDgmOJzERwJWGOLGCgAs,,18.7756318,100.7730417,1,,OK,"administrative_area_level_1,political"
334,APPROXIMATE,"Nan, Thailand",ChIJu20dDgmOJzERwJWGOLGCgAs,,18.7756318,100.7730417,1,,OK,"administrative_area_level_1,political"
335,APPROXIMATE,"New York, NY, USA",ChIJOwg_06VPwokRYv534QaPC8g,NYC ,40.7127753,-74.0059728,1,,OK,"locality,political"
336,APPROXIMATE,"Prospect Park, PA, USA",ChIJrzo9d-_CxokR0MuMkFX8xQ8,"Prospect Park, PA",39.8878904,-75.3082426,1,,OK,"locality,political"
337,APPROXIMATE,"92600 Asnières-sur-Seine, France",ChIJKxuhrEJv5kcRwD6LaMOCCwQ,"Asnières, France",48.914155,2.285369,1,92600,OK,"locality,political"
338,APPROXIMATE,"Columbia, SC, USA",ChIJ49ExeWml-IgRlvp5s_QIKPM,"Columbia, SC",34.0007104,-81.0348144,1,,OK,"locality,political"
339,APPROXIMATE,"Tallahassee, FL, USA",ChIJU0sSh1GK7IgR-LH91HoH7us,Tallahassee ,30.4382559,-84.2807329,1,,OK,"locality,political"
340,APPROXIMATE,"Virginia, USA",ChIJzbK8vXDWTIgRlaZGt0lBTsA,Virginia,37.4315734,-78.6568942,1,,OK,"administrative_area_level_1,political"
341,,,,"It just took place on the street, more precisely, at the ATM.",,,0,,ZERO_RESULTS,
342,APPROXIMATE,"Seattle, WA, USA",ChIJVTPokywQkFQRmtVEaUZlJRA,"Seattle, WA",47.6062095,-122.3320708,1,,OK,"locality,political"
343,APPROXIMATE,"South Brisbane QLD 4101, Australia",ChIJAVv28AVakWsRwJje81qjAgU,"South Brisbane, QLD, Australia",-27.47665,153.01667,1,4101,OK,"locality,political"
344,APPROXIMATE,"Brooklyn, NY, USA",ChIJCSF8lBZEwokRhngABHRcdoI,"Brooklyn, NY",40.6781784,-73.9441579,1,,OK,"political,sublocality,sublocality_level_1"
345,,,,"portsmouth,  virginia,  stores, home everywhere, even to the next city miles away",,,0,,ZERO_RESULTS,
346,APPROXIMATE,Colombia,ChIJo5QVrjqkFY4RQKPy7wSaDZo,Colombia,4.570868,-74.297333,1,,OK,"country,political"
347,GEOMETRIC_CENTER,"Muindi Mbingu Street, Off Monrovia Street., Nairobi., Kenya",ChIJfZtzctMQLxgRe_NSoLvaYDs,"Nairobi, Kenya, along the streets",-1.2810872,36.8186278,1,,OK,"establishment,food,lodging,point_of_interest,restaurant"
348,GEOMETRIC_CENTER,"Francisco St, San Francisco, CA, USA",ChIJpUy31t2AhYARCk9bMr_4pdE,San Francisco street,37.8031181,-122.425806,1,,OK,route
349,GEOMETRIC_CENTER,"32 Sandy Bay Rd, Hastings, ON K0L 1Y0, Canada",ChIJpc-aSp771YkRvhtgMfh8UDQ,"Hastings,Oshawa,Canada  at a cottage",44.260503,-78.039312,1,K0L 1Y0,OK,"establishment,lodging,point_of_interest"
350,,,,Salem Il. Pahrump NV. Lake Havasu City Az. And Needles CA.,,,0,,ZERO_RESULTS,
351,APPROXIMATE,"Washington, DC, USA",ChIJW-T2Wt7Gt4kRKl2I1CJFUsI,Washington DC,38.9071923,-77.0368707,1,,OK,"locality,political"
352,APPROXIMATE,"Freeport, NY, USA",ChIJ1esxKIZ7wokRFTkePKJbt4U,Freeport NY,40.6576022,-73.5831835,1,,OK,"locality,political"
353,APPROXIMATE,"Ventura, CA, USA",ChIJTTmXUBWt6YAR6Op6Nnz17yQ,"Ventura, CA",34.274646,-119.2290316,1,,OK,"locality,political"
354,APPROXIMATE,Philippines,ChIJY96HXyFTQDIRV9opeu-QR3g,Philippines,12.879721,121.774017,1,,OK,"country,political"
355,GEOMETRIC_CENTER,"W Lane Ave, Columbus, OH, USA",Eh1XIExhbmUgQXZlLCBDb2x1bWJ1cywgT0gsIFVTQQ,"West Lane Avenue, Columbus Ohio, 43210",40.006603,-83.0251092,1,,OK,route
356,ROOFTOP,"88 W 38th St, Tucson, AZ 85713, USA",ChIJswn8HQhv1oYRiqGw_bNuBpI,In the street,32.1910818,-110.969396,1,85713,OK,"establishment,point_of_interest"
357,ROOFTOP,"710 Santa Monica Blvd, Santa Monica, CA 90401, USA",ChIJxzgULMykwoARqCEz2wWVCxc,"My neighborhood, work",34.0188564,-118.4917947,1,90401,OK,"establishment,point_of_interest"
358,APPROXIMATE,"Illinois, USA",ChIJGSZubzgtC4gRVlkRZFCCFX8,Illinois,40.6331249,-89.3985283,1,,OK,"administrative_area_level_1,political"
359,ROOFTOP,"119 S 7th St, Columbia, MO 65201, USA",ChIJf1BgycW33IcRQOhFVjiMTqU,by my house,38.949924,-92.329874,1,65201,OK,"bar,establishment,point_of_interest"
360,APPROXIMATE,Mexico,ChIJU1NoiDs6BIQREZgJa760ZO0,mexico,23.634501,-102.552784,1,,OK,"country,political"
361,GEOMETRIC_CENTER,"Calle de Valencia, 28012 Madrid, Spain",ChIJL6QkYywmQg0ROxtfYj0a_Uk,Calle Valencia / downtown Madrid / Spain,40.4073975,-3.7002631,2,28012,OK,route
362,APPROXIMATE,"Denver, CO, USA",ChIJzxcfI6qAa4cR1jaKJ_j0jhE,Denver,39.7392358,-104.990251,1,,OK,"locality,political"
363,APPROXIMATE,"Stuttgart, Germany",ChIJ04-twTTbmUcR5M-RdxzB1Xk,Stuttgart,48.7758459,9.1829321,1,,OK,"locality,political"
364,ROOFTOP,"61 Broadway #3300, New York, NY 10006, USA",ChIJa5U71MlZwokRI7MmsoyrbgE,Big city in USA,40.7072823,-74.0130608,2,10006,OK,"establishment,point_of_interest"
365,APPROXIMATE,"Nantes, France",ChIJra6o8IHuBUgRMO0NHlI3DQQ,"Nantes, France",47.218371,-1.553621,1,,OK,"locality,political"
366,GEOMETRIC_CENTER,"Troy, NY 12180, USA",ChIJDQ1BBKAP3okRM3DCQXOLrXY,Walking to a bus stop,42.72947,-73.67764,1,12180,OK,"bus_station,establishment,point_of_interest,transit_station"
367,,,,Petworth neighborhood DC - Lamont and Kenyon,,,0,,ZERO_RESULTS,
368,APPROXIMATE,"Phoenix, AZ, USA",ChIJy3mhUO0SK4cRrBtKNfjHaYw,"Phoenix, Arizona USA",33.4483771,-112.0740373,1,,OK,"locality,political"
369,APPROXIMATE,"Round Rock, TX, USA",ChIJ5yIt7aTRRIYREEvg7VlyIQc,"Round Rock, Texas",30.5082551,-97.678896,1,,OK,"locality,political"
370,APPROXIMATE,"Round Rock, TX, USA",ChIJ5yIt7aTRRIYREEvg7VlyIQc,"Round Rock, Texas",30.5082551,-97.678896,1,,OK,"locality,political"
371,ROOFTOP,"8906 E 34th St, Tulsa, OK 74145, USA",ChIJmTMc_kmNtocRoQ0Y0LoIGgw,Town,36.113472,-95.8776075,1,74145,OK,"establishment,point_of_interest,school"
372,APPROXIMATE,"Los Angeles, CA, USA",ChIJE9on3F3HwoAR9AhGJW_fL-I,Los Angeles,34.0522342,-118.2436849,1,,OK,"locality,political"
373,ROOFTOP,"53 W Jackson Blvd #1357, Chicago, IL 60604, USA",ChIJTZHMAqUsDogRW3EnLKQOdFc,"Outskirts of Chicago, walking to a friend's house.",41.8775238,-87.6295464,2,60604,OK,"establishment,point_of_interest,travel_agency"
374,,,,"First place was in Sammamish WA by Pine Lake, second was by Target across the street from Northgate Mall in Seattle.",,,0,,ZERO_RESULTS,
375,ROOFTOP,"21061, 7550 Baltimore Annapolis Blvd, Glen Burnie, MD 21060, United States",ChIJ15xEVeb8t4kRerB6t4xen9s,Glen Burnie High School Glen Burnie Maryland,39.1592438,-76.6171725,1,21060,OK,"establishment,point_of_interest,school"
376,APPROXIMATE,"Talcher, Odisha, India",ChIJeS4OKTq0GDoREq6IIaQCm-M,"Talcher, Odisha ",20.9501027,85.216816,1,,OK,"locality,political"
377,GEOMETRIC_CENTER,"Malegaon Industrial Area, Malegaon, Maharashtra 422113, India",ChIJ97E4XX653TsRmTKW7PMXen0,My work place,19.8821949,73.9786901,2,422113,OK,"establishment,point_of_interest"
378,ROOFTOP,"715 Main St, Altoona, KS 66710, USA",ChIJmbKobz5KuIcRboEF3Mv6YgM,City,37.526328,-95.6623478,1,66710,OK,"establishment,local_government_office,point_of_interest"
379,ROOFTOP,"2198 Riverside Ave, Paso Robles, CA 93446, USA",ChIJmShSHmDF7IAREu8Pj_AYjBs,Mid State Fair in California ,35.6382601,-120.6874827,2,93446,OK,"establishment,point_of_interest"
380,APPROXIMATE,"Stockholm, Sweden",ChIJywtkGTF2X0YRZnedZ9MnDag,"Stockholm, Sweden",59.3293235,18.0685808,1,,OK,"locality,political"
381,APPROXIMATE,"Ashgabat, Turkmenistan",ChIJ2YQ2qxv-bz8R6a3TYj8B3jw,"Ashgabat, Turkmenistan",37.9600766,58.3260629,1,,OK,"locality,political"
382,APPROXIMATE,"Troy, NY, USA",ChIJc4cQTKcP3okRPHKk9fl-ETM,"Troy,NY",42.7284117,-73.6917851,1,,OK,"locality,political"
383,APPROXIMATE,"Troy, NY, USA",ChIJc4cQTKcP3okRPHKk9fl-ETM,"Troy,NY",42.7284117,-73.6917851,1,,OK,"locality,political"
384,APPROXIMATE,"Nan, Thailand",ChIJu20dDgmOJzERwJWGOLGCgAs,,18.7756318,100.7730417,1,,OK,"administrative_area_level_1,political"
385,APPROXIMATE,"Kansas City, MO, USA",ChIJl5npr173wIcRolGqauYlhVU,Kansas City,39.0997265,-94.5785667,1,,OK,"locality,political"
386,ROOFTOP,"100 Erving Ave, Lawrence, MA 01841, USA",ChIJb7arEgkH44kRnSnwHeiFa-U,"Leahy School, Lawrence, MA",42.7146216,-71.1614299,1,1841,OK,"establishment,point_of_interest,school"
387,APPROXIMATE,United States,ChIJCzYy5IS16lQRQrfeQ5K5Oxw,United States,37.09024,-95.712891,1,,OK,"country,political"
388,APPROXIMATE,"White Plains, NY, USA",ChIJ2TWj4iKUwokRbPxbGhAEFFQ,white plains ny,41.0339862,-73.7629097,1,,OK,"locality,political"
389,APPROXIMATE,"Hollywood, Los Angeles, CA, USA",ChIJv3lSBAe_woAR5Pq9l2eaevY,"Hollywood, CA, USA",34.0928092,-118.3286614,1,,OK,"neighborhood,political"
390,,,,It takes place every day of my life anywhere I go,,,0,,ZERO_RESULTS,
391,APPROXIMATE,"Shanghai, China",ChIJMzz1sUBwsjURoWTDI5QSlQI,Shanghai,31.2303904,121.4737021,1,,OK,"locality,political"
392,APPROXIMATE,"South Philadelphia, Philadelphia, PA, USA",ChIJf2RcDwfGxokRzvnN4l9Lc9Y,"South Philadelphia, PA",39.9093147,-75.1662121,1,,OK,"neighborhood,political"
393,ROOFTOP,"Piazza Papa Giovanni XXIII, 2, 95129 Catania CT, Italy",ChIJ79lYbTXjExMRxqVkI8etZWM,"train, Catania, Southern Italy",37.5067312,15.0999185,1,95129,OK,"bus_station,establishment,point_of_interest,train_station,transit_station"
394,GEOMETRIC_CENTER,"18th St & Walnut St, Boulder, CO 80302, USA",EisxOHRoIFN0ICYgV2FsbnV0IFN0LCBCb3VsZGVyLCBDTyA4MDMwMiwgVVNB,"Boulder, CO, at 18th and Walnut",40.0185,-105.27174,1,80302,OK,intersection
395,APPROXIMATE,"Florence, Metropolitan City of Florence, Italy",ChIJrdbSgKZWKhMRAyrH7xd51ZM,"Florence, Italy",43.7695604,11.2558136,1,,OK,"locality,political"
396,ROOFTOP,"12 E Main St, Chanute, KS 66720, USA",ChIJSWC7vTRDuIcRq29gGT0_Oto,Hotel ,37.6819562,-95.4519204,1,66720,OK,"establishment,lodging,point_of_interest"
397,APPROXIMATE,"Tamworth, UK",ChIJQeswGJOocEgR7xzI1LN_5vc,"Tamworth, UK",52.633584,-1.691032,1,,OK,"locality,political"
398,APPROXIMATE,"Savannah, GA, USA",ChIJWQbyePx1-4gRvCBgA1FnDE4,"Savannah, GA",32.0835407,-81.0998342,1,,OK,"locality,political"
399,ROOFTOP,"715 Main St, Altoona, KS 66710, USA",ChIJmbKobz5KuIcRboEF3Mv6YgM,city,37.526328,-95.6623478,1,66710,OK,"establishment,local_government_office,point_of_interest"
400,ROOFTOP,"4712 Lankershim Blvd, North Hollywood, CA 91602, USA",ChIJl4oB2yG-woARCmENojVoaWE,Outside a comedy show,34.1560826,-118.3689995,1,91602,OK,"establishment,night_club,point_of_interest"
401,APPROXIMATE,"Buenos Aires, Argentina",ChIJvQz5TjvKvJURh47oiC6Bs6A,Buenos Aires,-34.6036844,-58.3815591,1,,OK,"locality,political"
402,APPROXIMATE,"Outjo, Namibia",ChIJn_B6jMyXjBsRf14E-juVpHY,Outjo/Namibia,-20.1127536,16.1610343,1,,OK,"locality,political"
403,APPROXIMATE,"Yuba City, CA, USA",ChIJN7FwxXGrhIARAiXwBR1wP00,"Yuba City, California",39.1404477,-121.6169108,1,,OK,"locality,political"
404,APPROXIMATE,"Cumbia, Angola",ChIJU_wvyn_VWhoRyAPrxerNDJM,Cumbia,-6.9,13.5,1,,OK,"locality,political"
405,APPROXIMATE,Europe,ChIJhdqtz4aI7UYRefD8s-aZ73I,Europe,54.5259614,15.2551187,1,,OK,"continent,establishment,natural_feature"
406,APPROXIMATE,"Rawalpindi, Pakistan",ChIJy5pBdImU3zgRD9MyFn41hAk,"Rawalpindi, Pakistan",33.5651107,73.0169135,1,,OK,"locality,political"
407,APPROXIMATE,"Chicago, IL, USA",ChIJ7cv00DwsDogRAMDACa2m4K8,"Chicago, IL",41.8781136,-87.6297982,1,,OK,"locality,political"
408,APPROXIMATE,"Nan, Thailand",ChIJu20dDgmOJzERwJWGOLGCgAs,,18.7756318,100.7730417,1,,OK,"administrative_area_level_1,political"
409,ROOFTOP,"5608 Northwest Expy, Oklahoma City, OK 73132, USA",ChIJp6wWIdUEsocRi9QVtwRTSMw,Metro,35.5455794,-97.6112745,1,73132,OK,"establishment,point_of_interest,store"
410,APPROXIMATE,"Mt Vernon, WA, USA",ChIJGcOydplMhVQRReHZYGxcPoM,Mount Vernon Washington,48.421216,-122.3340474,1,,OK,"locality,political"
411,APPROXIMATE,"Chapel Hill, NC, USA",ChIJp35uIRzDrIkRy-RDBOC6A38,"Chapel Hill, NC",35.9131996,-79.0558445,1,,OK,"locality,political"
412,APPROXIMATE,Pakistan,ChIJH3X9-NJS2zgRXJIU5veht0Y,Pakistan,30.375321,69.345116,1,,OK,"country,political"
413,APPROXIMATE,"Sunrise, FL, USA",ChIJQZ3rCDao2YgRmfu2Qy4c9SQ,"Sunrise, FL",26.1669711,-80.256595,1,,OK,"locality,political"
414,ROOFTOP,"6320 Topanga Canyon Blvd, Woodland Hills, CA 91367, USA",ChIJc7l6vSGcwoARqOPvmAq9COo,Shopping center on the corner of Topanga Ave in Woodland Hills,34.1854261,-118.6051879,1,91367,OK,"establishment,point_of_interest,shopping_mall"
415,GEOMETRIC_CENTER,"W Girard Ave & N Broad St, Philadelphia, PA 19122, USA",EjZXIEdpcmFyZCBBdmUgJiBOIEJyb2FkIFN0LCBQaGlsYWRlbHBoaWEsIFBBIDE5MTIyLCBVU0E,"Philadelphia, PA Broad and Girard Ave. ",39.9715275,-75.1594286,1,19122,OK,intersection
416,APPROXIMATE,"Nan, Thailand",ChIJu20dDgmOJzERwJWGOLGCgAs,,18.7756318,100.7730417,1,,OK,"administrative_area_level_1,political"
417,APPROXIMATE,"Phoenix, AZ, USA",ChIJy3mhUO0SK4cRrBtKNfjHaYw,Phoenix Az,33.4483771,-112.0740373,1,,OK,"locality,political"
418,APPROXIMATE,"Kuala Lumpur, Federal Territory of Kuala Lumpur, Malaysia",ChIJ5-rvAcdJzDERfSgcL1uO2fQ,"Kuala Lumpur, Malaysia",3.139003,101.686855,1,,OK,"locality,political"
419,APPROXIMATE,"Westminster, CO, USA",ChIJn39Zoh6Ia4cRF0R0P3BXz6g,"Westminster, CO, USA",39.8366528,-105.0372046,1,,OK,"locality,political"
420,ROOFTOP,"1947 Kesha Ct, Pacific, MO 63069, USA",ChIJjx6V2qI62YcR5_xGt3J_YTQ,1947 Kesha court Pacific MO,38.4726886,-90.7704313,1,63069,OK,street_address
421,GEOMETRIC_CENTER,"US Hwy 19 N, Florida, USA",ChIJH7ciBIyNwogRCYuEz6jiyDc,"US Highway 19 North & Whitney Road, Clearwater FL",28.1721431,-82.7405807,2,,OK,route
422,ROOFTOP,"2855 Stevens Creek Blvd, Santa Clara, CA 95050, USA",ChIJgexMlR_Lj4ARSvwSxukOgys,"San Jose, Ca. In Valley Faire Mall",37.3250737,-121.9457041,1,95050,OK,"clothing_store,department_store,establishment,food,point_of_interest,restaurant,shoe_store,shopping_mall,store"
423,APPROXIMATE,"Leicester, UK",ChIJc2y3SatCd0gRuJy0byodFZo,Leicester,52.6368778,-1.1397592,1,,OK,"locality,political"
424,APPROXIMATE,"Nan, Thailand",ChIJu20dDgmOJzERwJWGOLGCgAs,,18.7756318,100.7730417,1,,OK,"administrative_area_level_1,political"
425,ROOFTOP,"1543 Ligonier St, Latrobe, PA 15650, USA",ChIJq6W0Oasyy4kRyqcbN_8mUGY,"Out on the street, Latrobe PA USA",40.311498,-79.379533,1,15650,OK,"cemetery,establishment,funeral_home,point_of_interest"
426,APPROXIMATE,India,ChIJkbeSa_BfYzARphNChaFPjNc,In India ,20.593684,78.96288,1,,OK,"country,political"
427,GEOMETRIC_CENTER,"Beach, Whitmore Lake, MI 48189, USA",ChIJASMw1ZFLI4gRuXVON92nreo,Beach,42.4386349,-83.857633,4,48189,OK,route
428,APPROXIMATE,"Nan, Thailand",ChIJu20dDgmOJzERwJWGOLGCgAs,,18.7756318,100.7730417,1,,OK,"administrative_area_level_1,political"
429,APPROXIMATE,"Elizabeth Bay NSW 2011, Australia",ChIJh0ghm3SuEmsRMLYyFmh9AQU,Elizabeth Bay NSW Australia,-33.87143,151.22841,1,2011,OK,"locality,political"
430,APPROXIMATE,"Atlanta, GA, USA",ChIJjQmTaV0E9YgRC2MLmS_e_mY,"Atlanta, GA",33.7489954,-84.3879824,1,,OK,"locality,political"
431,APPROXIMATE,"Anaconda, MT, USA",ChIJOUX-xVyYW1MRpXBzBwUa6FI,"Anaconda, MT",46.1262998,-112.9478359,1,,OK,"locality,political"
432,APPROXIMATE,"Port Louis, Mauritius",ChIJ7wHWQUlQfCERPbu9kWwYxf0,Port-Louis/Port-Louis/Mauritius,-20.1608912,57.5012222,1,,OK,"locality,political"
433,GEOMETRIC_CENTER,"Downey Ave, Long Beach, CA, USA",Eh9Eb3duZXkgQXZlLCBMb25nIEJlYWNoLCBDQSwgVVNB,Downey Ave. Long Beach Ca.,33.8711052,-118.1512593,1,,OK,route
434,,,,Near the bus line i take to work an a bus line I take for other reasons.,,,0,,ZERO_RESULTS,
435,APPROXIMATE,"San Sebastián, Gipuzkoa, Spain",ChIJFf5oO_6vUQ0RSUaGlFnFPuQ,"Donostia , San Sebastián, Spain",43.318334,-1.9812313,1,,OK,"locality,political"
436,APPROXIMATE,"La Crosse, WI, USA",ChIJlbMyZ99U-YcRsCI3GRWIqX8,"La Crosse, WI",43.8013556,-91.2395807,1,,OK,"locality,political"
437,ROOFTOP,"600 Clearwater Rd, Hershey, PA 17033, USA",ChIJ69cax3S7yIkRzCN0yozDtoI,Downtown Hershey,40.286812,-76.683286,1,17033,OK,"establishment,point_of_interest"
438,,,,In a store it has happened.,,,0,,ZERO_RESULTS,
439,APPROXIMATE,"New Jersey, USA",ChIJn0AAnpX7wIkRjW0_-Ad70iw,NJ,40.0583238,-74.4056612,1,,OK,"administrative_area_level_1,political"
440,APPROXIMATE,"England, UK",ChIJ39UebIqp0EcRqI4tMyWV4fQ,England,52.3555177,-1.1743197,1,,OK,"administrative_area_level_1,political"
441,APPROXIMATE,"Salt Lake City, UT, USA",ChIJ7THRiJQ9UocRyjFNSKC3U1s,"Salt Lake City, UT",40.7607793,-111.8910474,1,,OK,"locality,political"
442,APPROXIMATE,"Nan, Thailand",ChIJu20dDgmOJzERwJWGOLGCgAs,,18.7756318,100.7730417,1,,OK,"administrative_area_level_1,political"
443,APPROXIMATE,Canada,ChIJ2WrMN9MDDUsRpY9Doiq3aJk,Canada,56.130366,-106.346771,1,,OK,"country,political"
444,APPROXIMATE,"Holloway, London N7 6PG, UK",ChIJsfR12J8bdkgRAbu0yJ1n9ME,"Holloway, Islington, London",51.557017,-0.115522,1,N7 6PG,OK,"locality,political"
445,APPROXIMATE,"Nan, Thailand",ChIJu20dDgmOJzERwJWGOLGCgAs,,18.7756318,100.7730417,1,,OK,"administrative_area_level_1,political"
446,ROOFTOP,"4220 Garfield St, Denver, CO 80216, USA",ChIJ7zzcpHx5bIcRLYi0pdRcsrE,"Denver, Colorado RTD train",39.7748933,-104.9440711,1,80216,OK,"establishment,point_of_interest"
447,GEOMETRIC_CENTER,"W 14th St & 8th Ave, New York, NY 10011, USA",EixXIDE0dGggU3QgJiA4dGggQXZlLCBOZXcgWW9yaywgTlkgMTAwMTEsIFVTQQ,14th and 8th Ave. in Manhattan,40.7397433,-74.0025294,2,10011,OK,intersection
448,GEOMETRIC_CENTER,"33 Hyderabad Rd, HortPark, Singapore 119578",ChIJC_hOgcgb2jERfF9HNB10xfI,"Singapore, at a park.",1.2787362,103.8018322,1,119578,OK,"establishment,park,point_of_interest"
449,,,,"St Louis, MO- Arsenal and Gravois, Kingshighway and Delmar, Chippewa and Oregon",,,0,,ZERO_RESULTS,
450,APPROXIMATE,"Washington, DC, USA",ChIJW-T2Wt7Gt4kRKl2I1CJFUsI,Washington D.C.,38.9071923,-77.0368707,1,,OK,"locality,political"
451,APPROXIMATE,"Washington, DC, USA",ChIJW-T2Wt7Gt4kRKl2I1CJFUsI,Washington D.C.,38.9071923,-77.0368707,1,,OK,"locality,political"
452,GEOMETRIC_CENTER,"My Driveway, Helena, MT 59602, USA",ChIJdeDtIFCtXFMRi2kMZAZ0C-M,My driveway,46.6826175,-112.1571447,1,59602,OK,route
453,APPROXIMATE,"Nan, Thailand",ChIJu20dDgmOJzERwJWGOLGCgAs,,18.7756318,100.7730417,1,,OK,"administrative_area_level_1,political"
454,,,,.,,,0,,ZERO_RESULTS,
455,APPROXIMATE,"New York, NY, USA",ChIJOwg_06VPwokRYv534QaPC8g,"New York, NY",40.7127753,-74.0059728,1,,OK,"locality,political"
456,APPROXIMATE,"Warminster, PA 18974, USA",ChIJn9qVo-6uxokRjZ6iLcwxNAI,"Warminster, PA",40.2067884,-75.099807,1,18974,OK,"locality,political"
457,APPROXIMATE,Belgium,ChIJl5fz7WR9wUcR8g_mObTy60c,Belgium,50.503887,4.469936,1,,OK,"country,political"
458,APPROXIMATE,"Boston, MA, USA",ChIJGzE9DS1l44kRoOhiASS_fHg,"Boston, MA",42.3600825,-71.0588801,1,,OK,"locality,political"
459,APPROXIMATE,"Boston, MA, USA",ChIJGzE9DS1l44kRoOhiASS_fHg,"Boston, MA",42.3600825,-71.0588801,1,,OK,"locality,political"
460,APPROXIMATE,"White Plains, NY, USA",ChIJ2TWj4iKUwokRbPxbGhAEFFQ,white plains ny,41.0339862,-73.7629097,1,,OK,"locality,political"
461,APPROXIMATE,"Hernando, MS, USA",ChIJ2Ze-x4z1f4gR6jKMrM-3pE0,Hernando ms,34.823987,-89.9937018,1,,OK,"locality,political"
462,ROOFTOP,"7321 Sunshine Grove Rd, Brooksville, FL 34613, USA",ChIJE8LYu8Ee6IgRSTFcqb-9qpM,Hernando msl,28.5377439,-82.5006654,1,34613,OK,"establishment,point_of_interest,real_estate_agency"
463,ROOFTOP,"7321 Sunshine Grove Rd, Brooksville, FL 34613, USA",ChIJE8LYu8Ee6IgRSTFcqb-9qpM,Hernando msl,28.5377439,-82.5006654,1,34613,OK,"establishment,point_of_interest,real_estate_agency"
464,ROOFTOP,"1640 N Cahuenga Blvd, Los Angeles, CA 90028, USA",ChIJW5otxTu_woAR1ELPO5om5Hc,Hollywood near cahuenga around that area of the strip. ,34.1010314,-118.3293867,1,90028,OK,"establishment,point_of_interest"
465,ROOFTOP,"1640 N Cahuenga Blvd, Los Angeles, CA 90028, USA",ChIJW5otxTu_woAR1ELPO5om5Hc,Hollywood near cahuenga around that area of the strip. ,34.1010314,-118.3293867,1,90028,OK,"establishment,point_of_interest"
466,ROOFTOP,"15681 Brookhurst St, Westminster, CA 92683, USA",ChIJrds3DaQn3YARNF8MirfEfSw,Westminster California near the Sabrosada restaurant,33.7351032,-117.9551103,1,92683,OK,"establishment,food,point_of_interest,restaurant"
467,APPROXIMATE,"Westchester County, NY, USA",ChIJr1lrnWrJwokRidu9ImLYDjc,"Westchester, NY",41.1220194,-73.7948516,1,,OK,"administrative_area_level_2,political"
468,APPROXIMATE,"Oakland, CA, USA",ChIJA-2qKIt9hYARZ5N1NdUVtHE,"Oakland, CA",37.8043637,-122.2711137,1,,OK,"locality,political"
469,ROOFTOP,"13101 E Broncos Pkwy, Centennial, CO 80112, USA",ChIJq6qqqpaBbIcROumCwffJOFQ,"Denver suburbs, Arapahoe County",39.5797538,-104.8378455,1,80112,OK,"establishment,local_government_office,point_of_interest"
470,APPROXIMATE,"De Pijp, 1072 PB Amsterdam, Netherlands",ChIJk43ClosJxkcRulmUEo-atUU,"Amstredam, de Pijp",52.3533437,4.8964168,1,1072 PB,OK,"neighborhood,political"
471,APPROXIMATE,"Midtown East, New York, NY, USA",ChIJuz0pm-JYwokRfGONItGYHpc,"Midtown East, Manhattan",40.7540369,-73.9668408,1,,OK,"neighborhood,political"
472,GEOMETRIC_CENTER,"Busy St, Memphis, TN 38125, USA",ChIJ5S7QGu2Qf4gRKlOJ9cr7Mr8,City. busy streets,35.0147343,-89.801896,2,38125,OK,route
473,APPROXIMATE,"Nan, Thailand",ChIJu20dDgmOJzERwJWGOLGCgAs,,18.7756318,100.7730417,1,,OK,"administrative_area_level_1,political"
474,APPROXIMATE,"Kailua, HI, USA",ChIJ0xHGPQ5dAHwRwmYwMeCMKdk,"Kailua, Hawaii ",21.4022222,-157.7394444,1,,OK,"locality,political"
475,ROOFTOP,"1600 Exposition Blvd, Sacramento, CA 95815, USA",ChIJyRBVVhfamoAR5teWHibVDyg,California state fair Sacramento ,38.5928473,-121.4376522,1,95815,OK,"establishment,point_of_interest"
476,APPROXIMATE,"New York, NY, USA",ChIJOwg_06VPwokRYv534QaPC8g,New York,40.7127753,-74.0059728,1,,OK,"locality,political"
477,APPROXIMATE,"Tyler, TX, USA",ChIJ4_mrHgXMSYYRHHB3cX1cKD4,"Tyler, TX",32.3512601,-95.3010624,1,,OK,"locality,political"
478,ROOFTOP,"1311 Highland Dr, McPherson, KS 67460, USA",ChIJVQBvsMpXu4cRYd7HWo45n3A,Ur mom,38.3829378,-97.6541864,1,67460,OK,"establishment,home_goods_store,point_of_interest,store"
479,ROOFTOP,"1305 Holly Ave, Columbus, OH 43212, USA",ChIJsQwGTPiOOIgRxj8Pt4CYXUM,"Everywhere, ohio",39.9857843,-83.0339031,1,43212,OK,"establishment,point_of_interest"
480,,,,At my home and my ji,,,0,,ZERO_RESULTS,
481,,,,At my home and my job,,,0,,ZERO_RESULTS,
482,ROOFTOP,"1799 Lombard St, San Francisco, CA 94123, USA",ChIJrT5VyNCAhYARNnnQCSP7LSw,"San Francisco, a block from Lombard street ",37.8002962,-122.4309392,2,94123,OK,"accounting,establishment,finance,point_of_interest"
483,ROOFTOP,"700 On The Mall, Minneapolis, MN 55402, USA",ChIJ3dpkzZAys1IReihL293HMiA,Nicollet mall AREAS Macys,44.97671,-93.272913,1,55402,OK,"clothing_store,department_store,establishment,furniture_store,home_goods_store,jewelry_store,lodging,point_of_interest,shoe_store,store"
484,APPROXIMATE,"New Jersey, USA",ChIJn0AAnpX7wIkRjW0_-Ad70iw,New Jersey,40.0583238,-74.4056612,1,,OK,"administrative_area_level_1,political"
485,ROOFTOP,"1335 E 5th Ave, Emporia, KS 66801, USA",ChIJ3aeh56tOuYcREvjTN2uJBXs,Street,38.403528,-96.1574909,1,66801,OK,"establishment,point_of_interest"
486,RANGE_INTERPOLATED,"1984 N Hitler St, Kimmell, IN 46760, USA",EigxOTg0IE4gSGl0bGVyIFN0LCBLaW1tZWxsLCBJTiA0Njc2MCwgVVNB,1984 Hitler Drive,41.3926207,-85.547297,2,46760,OK,street_address
487,,,,"Street, at work, Train, waiting for paying in the markets",,,0,,ZERO_RESULTS,
488,APPROXIMATE,"Ipoh, Perak, Malaysia",ChIJ4zNA83nsyjERWehSaUaf3I8,"Malaysia, Ipoh PERAK ",4.597479,101.090106,1,,OK,"locality,political"
489,APPROXIMATE,"Ipoh, Perak, Malaysia",ChIJ4zNA83nsyjERWehSaUaf3I8,"Malaysia, Ipoh PERAK ",4.597479,101.090106,1,,OK,"locality,political"
490,GEOMETRIC_CENTER,"Ngurah Rai International Airport (DPS), Jalan Raya Gusti Ngurah Rai, Tuban, Kuta, Kabupaten Badung, Bali 80362, Indonesia",ChIJM2khUBZE0i0RH8x73W3acd8,Bali Ngurah Rai International Airport,-8.7467172,115.166787,1,80362,OK,"airport,establishment,point_of_interest"
491,,,,"Happens everywhere, East Finchley, Wood Green, Liverpool, Old Street, etc. In my house, on the tube, in the street, etc.",,,0,,ZERO_RESULTS,
492,APPROXIMATE,United States,ChIJCzYy5IS16lQRQrfeQ5K5Oxw,US,37.09024,-95.712891,1,,OK,"country,political"
493,APPROXIMATE,"Greenville, TX, USA",ChIJySyZlNriS4YRqnd2vPViBbA,"greenville tx,",33.1384488,-96.1108066,1,,OK,"locality,political"
494,APPROXIMATE,"Massachusetts, USA",ChIJ_b9z6W1l44kRHA2DVTbQxkU,Massachusetts ,42.4072107,-71.3824374,1,,OK,"administrative_area_level_1,political"
495,GEOMETRIC_CENTER,"52nd Ave, Queens, NY 11373, USA",ChIJ40u0qE1ewokRrHUaXbOSFr0,"52 Avenue & 5 Street NW. Miami, FL. USA.",40.7378448,-73.8761959,10,11373,OK,route
496,GEOMETRIC_CENTER,"Airport, Kansas City, MO 64163, USA",ChIJfSNtIhBewIcRijH0EigAPp8,The metro bus ,39.2975455,-94.7160645,1,64163,OK,"establishment,point_of_interest"
497,APPROXIMATE,"Chennai, Tamil Nadu, India",ChIJYTN9T-plUjoRM9RjaAunYW4,Chennai,13.0826802,80.2707184,1,,OK,"locality,political"
498,APPROXIMATE,"Broward County, FL, USA",ChIJFUaCG35_2YgRFNYLv44fMaA,Broward county Florida ,26.190096,-80.365865,1,,OK,"administrative_area_level_2,political"
499,APPROXIMATE,"Florence, Metropolitan City of Florence, Italy",ChIJrdbSgKZWKhMRAyrH7xd51ZM,"Florence, Italy",43.7695604,11.2558136,1,,OK,"locality,political"
500,APPROXIMATE,"Houston, TX, USA",ChIJAYWNSLS4QIYROwVl894CDco,"Houston, TX",29.7604267,-95.3698028,1,,OK,"locality,political"
501,ROOFTOP,"5660 College Ave, Oakland, CA 94618, USA",ChIJaesg-cJ9hYAR0somlUQPBeQ,"On College Avenue near Rockridge BART station in Oakland, California USA",37.8447023,-122.251392,1,94618,OK,"establishment,point_of_interest,subway_station,transit_station"
502,,,,SAN Pedro California Ps im a victim of two car accidents im unable to return to my family due to memory loss congrates at being rude evil people. Yes I was married owned a house have children I got locate. My husband and son.live in Gardena Ca. I helped a Gardena bar owner afford a mew business through cash donation.ect  gave back to my community and yes Gardena.Police Dept can help me so far  no go,,,0,,ZERO_RESULTS,
503,,,,SAN Pedro California Ps im a victim of two car accidents im unable to return to my family due to memory loss congrates at being rude evil people. Yes I was married owned a house have children I got locate. My husband and son.live in Gardena Ca. I helped a Gardena bar owner afford a mew business through cash donation.ect  gave back to my community and yes Gardena.Police Dept can help me so far  no go,,,0,,ZERO_RESULTS,
504,APPROXIMATE,"Nan, Thailand",ChIJu20dDgmOJzERwJWGOLGCgAs,,18.7756318,100.7730417,1,,OK,"administrative_area_level_1,political"
505,GEOMETRIC_CENTER,"M St NW, Washington, DC, USA",ChIJk_dPyLi3t4kRyN6fLXV9fLo,M St./Georgetown,38.905648,-77.0402949,1,,OK,route
506,APPROXIMATE,United States,ChIJCzYy5IS16lQRQrfeQ5K5Oxw,USA,37.09024,-95.712891,1,,OK,"country,political"
507,ROOFTOP,"12/12 Lyn Parade, Prestons NSW 2170, Australia",ChIJ9TFU7fWUEmsReS3dBfVjl3Y,"Pedestrian crossong, Sydney, nsw, australia",-33.9304721,150.8887516,2,2170,OK,"establishment,furniture_store,home_goods_store,point_of_interest,store"
508,ROOFTOP,"121 S San Francisco St, Flagstaff, AZ 86001, USA",ChIJO_MGPkKPLYcR6cHy1yDvZWc,"Ho Chin Minh,  Vietnam.  On the street. ",35.19472,-111.6494769,1,86001,OK,"establishment,food,point_of_interest,restaurant"
509,APPROXIMATE,"Nan, Thailand",ChIJu20dDgmOJzERwJWGOLGCgAs,,18.7756318,100.7730417,1,,OK,"administrative_area_level_1,political"
510,APPROXIMATE,"Nan, Thailand",ChIJu20dDgmOJzERwJWGOLGCgAs,,18.7756318,100.7730417,1,,OK,"administrative_area_level_1,political"
511,APPROXIMATE,"Nan, Thailand",ChIJu20dDgmOJzERwJWGOLGCgAs,,18.7756318,100.7730417,1,,OK,"administrative_area_level_1,political"
512,ROOFTOP,"2929 McCully Rd, Allison Park, PA 15101, USA",ChIJuXnHEMONNIgRTe8ciqwNmKA,"Pennsylvania, in a high school",40.5831392,-79.9407812,1,15101,OK,"establishment,point_of_interest,school"
513,APPROXIMATE,"Nan, Thailand",ChIJu20dDgmOJzERwJWGOLGCgAs,,18.7756318,100.7730417,1,,OK,"administrative_area_level_1,political"
514,APPROXIMATE,"Nan, Thailand",ChIJu20dDgmOJzERwJWGOLGCgAs,,18.7756318,100.7730417,1,,OK,"administrative_area_level_1,political"
515,APPROXIMATE,"Atlanta, GA, USA",ChIJjQmTaV0E9YgRC2MLmS_e_mY,"Atlanta, GA",33.7489954,-84.3879824,1,,OK,"locality,political"
516,APPROXIMATE,"Nan, Thailand",ChIJu20dDgmOJzERwJWGOLGCgAs,,18.7756318,100.7730417,1,,OK,"administrative_area_level_1,political"
517,APPROXIMATE,"Nan, Thailand",ChIJu20dDgmOJzERwJWGOLGCgAs,,18.7756318,100.7730417,1,,OK,"administrative_area_level_1,political"
518,APPROXIMATE,"San Francisco, CA, USA",ChIJIQBpAG2ahYAR_6128GcTUEo,"San Francisco, CA",37.7749295,-122.4194155,1,,OK,"locality,political"
519,APPROXIMATE,"Nan, Thailand",ChIJu20dDgmOJzERwJWGOLGCgAs,,18.7756318,100.7730417,1,,OK,"administrative_area_level_1,political"
520,APPROXIMATE,"Nan, Thailand",ChIJu20dDgmOJzERwJWGOLGCgAs,,18.7756318,100.7730417,1,,OK,"administrative_area_level_1,political"
521,APPROXIMATE,"New York, NY, USA",ChIJOwg_06VPwokRYv534QaPC8g,New York,40.7127753,-74.0059728,1,,OK,"locality,political"
522,APPROXIMATE,"Nan, Thailand",ChIJu20dDgmOJzERwJWGOLGCgAs,,18.7756318,100.7730417,1,,OK,"administrative_area_level_1,political"
523,APPROXIMATE,"Walkley, Sheffield S6 5BT, UK",ChIJ0csh87x4eUgRoVzFvAtkfOc,"Walkley, Sheffield, UK",53.396087,-1.50013,1,S6 5BT,OK,"political,sublocality,sublocality_level_1"
524,APPROXIMATE,"Nan, Thailand",ChIJu20dDgmOJzERwJWGOLGCgAs,,18.7756318,100.7730417,1,,OK,"administrative_area_level_1,political"
525,APPROXIMATE,"Nan, Thailand",ChIJu20dDgmOJzERwJWGOLGCgAs,,18.7756318,100.7730417,1,,OK,"administrative_area_level_1,political"
526,APPROXIMATE,"Jupiter, FL, USA",ChIJfW8aRDUz2YgRIZqJ_29IUdw,"Jupiter, Florida",26.9342246,-80.0942087,1,,OK,"locality,political"
527,APPROXIMATE,"Nan, Thailand",ChIJu20dDgmOJzERwJWGOLGCgAs,,18.7756318,100.7730417,1,,OK,"administrative_area_level_1,political"
528,APPROXIMATE,"Nan, Thailand",ChIJu20dDgmOJzERwJWGOLGCgAs,,18.7756318,100.7730417,1,,OK,"administrative_area_level_1,political"
529,APPROXIMATE,"Nan, Thailand",ChIJu20dDgmOJzERwJWGOLGCgAs,,18.7756318,100.7730417,1,,OK,"administrative_area_level_1,political"
530,APPROXIMATE,Lebanon,ChIJraoihAIXHxURcPkAbAk0fcw,Lebanon,33.854721,35.862285,1,,OK,"country,political"
531,APPROXIMATE,"Nan, Thailand",ChIJu20dDgmOJzERwJWGOLGCgAs,,18.7756318,100.7730417,1,,OK,"administrative_area_level_1,political"
532,APPROXIMATE,"Nan, Thailand",ChIJu20dDgmOJzERwJWGOLGCgAs,,18.7756318,100.7730417,1,,OK,"administrative_area_level_1,political"
533,APPROXIMATE,"Nan, Thailand",ChIJu20dDgmOJzERwJWGOLGCgAs,,18.7756318,100.7730417,1,,OK,"administrative_area_level_1,political"
534,APPROXIMATE,"Nan, Thailand",ChIJu20dDgmOJzERwJWGOLGCgAs,,18.7756318,100.7730417,1,,OK,"administrative_area_level_1,political"
535,APPROXIMATE,"Nan, Thailand",ChIJu20dDgmOJzERwJWGOLGCgAs,,18.7756318,100.7730417,1,,OK,"administrative_area_level_1,political"
536,APPROXIMATE,"Nan, Thailand",ChIJu20dDgmOJzERwJWGOLGCgAs,,18.7756318,100.7730417,1,,OK,"administrative_area_level_1,political"
537,APPROXIMATE,"Nan, Thailand",ChIJu20dDgmOJzERwJWGOLGCgAs,,18.7756318,100.7730417,1,,OK,"administrative_area_level_1,political"
538,APPROXIMATE,"Nan, Thailand",ChIJu20dDgmOJzERwJWGOLGCgAs,,18.7756318,100.7730417,1,,OK,"administrative_area_level_1,political"
539,APPROXIMATE,"Nan, Thailand",ChIJu20dDgmOJzERwJWGOLGCgAs,,18.7756318,100.7730417,1,,OK,"administrative_area_level_1,political"
540,APPROXIMATE,"Nan, Thailand",ChIJu20dDgmOJzERwJWGOLGCgAs,,18.7756318,100.7730417,1,,OK,"administrative_area_level_1,political"
541,APPROXIMATE,"Nan, Thailand",ChIJu20dDgmOJzERwJWGOLGCgAs,,18.7756318,100.7730417,1,,OK,"administrative_area_level_1,political"
542,APPROXIMATE,"Nan, Thailand",ChIJu20dDgmOJzERwJWGOLGCgAs,,18.7756318,100.7730417,1,,OK,"administrative_area_level_1,political"
543,APPROXIMATE,"Nan, Thailand",ChIJu20dDgmOJzERwJWGOLGCgAs,,18.7756318,100.7730417,1,,OK,"administrative_area_level_1,political"
544,APPROXIMATE,"Nan, Thailand",ChIJu20dDgmOJzERwJWGOLGCgAs,,18.7756318,100.7730417,1,,OK,"administrative_area_level_1,political"
545,APPROXIMATE,"Nan, Thailand",ChIJu20dDgmOJzERwJWGOLGCgAs,,18.7756318,100.7730417,1,,OK,"administrative_area_level_1,political"
546,APPROXIMATE,"Nan, Thailand",ChIJu20dDgmOJzERwJWGOLGCgAs,,18.7756318,100.7730417,1,,OK,"administrative_area_level_1,political"
547,GEOMETRIC_CENTER,"S Main St, Royal Oak, MI 48067, USA",EiNTIE1haW4gU3QsIFJveWFsIE9haywgTUkgNDgwNjcsIFVTQQ,"Royal Oak, MI - Main Street",42.483132,-83.1440438,2,48067,OK,route
548,ROOFTOP,"742 S Harrison Blvd, Ogden, UT 84404, USA",ChIJb7qelE0JU4cRSjyGkTkuR0Q,Utah at school,41.250733,-111.9453906,1,84404,OK,"establishment,library,point_of_interest,school"
549,GEOMETRIC_CENTER,"Market St, Adekunle, Lagos, Nigeria",ChIJd5wBmn2LOxARb9tRYulmZK4,Mainland/lagos state/ Nigeria/ market,6.4809469,3.3869152,1,,OK,route
550,APPROXIMATE,"Nan, Thailand",ChIJu20dDgmOJzERwJWGOLGCgAs,,18.7756318,100.7730417,1,,OK,"administrative_area_level_1,political"
551,APPROXIMATE,"New Jersey, USA",ChIJn0AAnpX7wIkRjW0_-Ad70iw,NJ,40.0583238,-74.4056612,1,,OK,"administrative_area_level_1,political"
552,,,,Brooklyn sidewalk,,,0,,ZERO_RESULTS,
553,GEOMETRIC_CENTER,"Brooklyn, NY 11225, USA",ChIJ59SHynFbwokRKRKEsB7FU8c,"Brooklyn, New York- Sterling St 2 Train",40.6632864,-73.951043,1,11225,OK,"establishment,point_of_interest,subway_station,transit_station"
554,APPROXIMATE,"Rome, Metropolitan City of Rome, Italy",ChIJu46S-ZZhLxMROG5lkwZ3D7k,"Rome, Italy",41.9027835,12.4963655,1,,OK,"locality,political"
555,APPROXIMATE,"Johnstown, PA, USA",ChIJ-YXbqi8Ry4kRFeBP5xHlsZQ,"Johnstown, PA",40.3267407,-78.9219698,1,,OK,"locality,political"
556,APPROXIMATE,"London, ON, Canada",ChIJC5uNqA7yLogRlWsFmmnXxyg,London / Ontario / Canada,42.9849233,-81.2452768,1,,OK,"locality,political"
557,APPROXIMATE,"Madison, WI, USA",ChIJ_xkgOm1TBogRmEFIurX8DE4,"Madison, Wisconsin",43.0730517,-89.4012302,1,,OK,"locality,political"
558,GEOMETRIC_CENTER,"Mazatlan & México, Jaripillo, 82134 Mazatlán, Sin., Mexico",Ej1NYXphdGxhbiAmIE3DqXhpY28sIEphcmlwaWxsbywgODIxMzQgTWF6YXRsw6FuLCBTaW4uLCBNw6l4aWNv,"Mazatlan, Mexico streets",23.2644374,-106.3970307,3,82134,OK,intersection
559,APPROXIMATE,"Medellin, Antioquia, Colombia",ChIJ291STu8oRI4RcqxwksPWL3I,"Medellin, Colombia",6.244203,-75.5812119,1,,OK,"administrative_area_level_2,political"
560,ROOFTOP,"452 State St, Madison, WI 53703, USA",ChIJcbomQDZTBogRkEghx1Jj3I0,"Downtown Madison, WI",43.0749703,-89.3927526,1,53703,OK,"establishment,point_of_interest,travel_agency"
561,APPROXIMATE,France,ChIJMVd4MymgVA0R99lHx5Y__Ws,France,46.227638,2.213749,1,,OK,"country,political"
562,GEOMETRIC_CENTER,"Venture 3, वेंचर 1, लोठुकुनता, Alwal, सिकंदराबाद, तेलंगाना 500010, India",ChIJYW0UouaayzsRqgcLY7FY_Pk,"Lothkunta,near nartaki theatre, secunderabad",17.4942276,78.5132967,1,500010,OK,"electronics_store,establishment,home_goods_store,movie_theater,point_of_interest,store"
563,GEOMETRIC_CENTER,"Venture 3, वेंचर 1, लोठुकुनता, Alwal, सिकंदराबाद, तेलंगाना 500010, India",ChIJYW0UouaayzsRqgcLY7FY_Pk,"Lothkunta,near nartaki theatre, secunderabad",17.4942276,78.5132967,1,500010,OK,"electronics_store,establishment,home_goods_store,movie_theater,point_of_interest,store"
564,APPROXIMATE,"Vancouver, WA, USA",ChIJb5a6KOuulVQR-eK2xOgQMnY,Portland Vancouver,45.6738037,-122.6812485,2,,OK,political
565,APPROXIMATE,"Brooklyn, NY, USA",ChIJCSF8lBZEwokRhngABHRcdoI,"Brooklyn, NY",40.6781784,-73.9441579,1,,OK,"political,sublocality,sublocality_level_1"
566,APPROXIMATE,"Nan, Thailand",ChIJu20dDgmOJzERwJWGOLGCgAs,,18.7756318,100.7730417,1,,OK,"administrative_area_level_1,political"
567,APPROXIMATE,"Hamilton, NY 13346, USA",ChIJgcaHIxjX24kRSktoU5hZphg,"Hamilton, NY",42.8270136,-75.5446238,1,13346,OK,"locality,political"
568,APPROXIMATE,"Nan, Thailand",ChIJu20dDgmOJzERwJWGOLGCgAs,,18.7756318,100.7730417,1,,OK,"administrative_area_level_1,political"
569,GEOMETRIC_CENTER,"1227 East Blvd, Kenilworth Commons, Charlotte, NC 28203, United States",ChIJr4oTFpqfVogRy9aeM6xwUnk,"Harris Teeter, Charlotte NC",35.2028257,-80.8458281,1,28203,OK,"bakery,establishment,florist,food,grocery_or_supermarket,health,liquor_store,pharmacy,point_of_interest,store,supermarket"
570,APPROXIMATE,"Nan, Thailand",ChIJu20dDgmOJzERwJWGOLGCgAs,,18.7756318,100.7730417,1,,OK,"administrative_area_level_1,political"
571,APPROXIMATE,"Nan, Thailand",ChIJu20dDgmOJzERwJWGOLGCgAs,,18.7756318,100.7730417,1,,OK,"administrative_area_level_1,political"
572,APPROXIMATE,"Nan, Thailand",ChIJu20dDgmOJzERwJWGOLGCgAs,,18.7756318,100.7730417,1,,OK,"administrative_area_level_1,political"
573,APPROXIMATE,"Nan, Thailand",ChIJu20dDgmOJzERwJWGOLGCgAs,,18.7756318,100.7730417,1,,OK,"administrative_area_level_1,political"
574,APPROXIMATE,"Nan, Thailand",ChIJu20dDgmOJzERwJWGOLGCgAs,,18.7756318,100.7730417,1,,OK,"administrative_area_level_1,political"
575,,,,"Cincinnati, Los Angeles, Savannah, NYC, Chicago, Italy, OKC, Seattle, Everywhere I go",,,0,,ZERO_RESULTS,
576,GEOMETRIC_CENTER,"W Georgia St & Granville St, Vancouver, BC V6B, Canada",EjZXIEdlb3JnaWEgU3QgJiBHcmFudmlsbGUgU3QsIFZhbmNvdXZlciwgQkMgVjZCLCBDYW5hZGE,Vancouver - Granville and W Georgia St,49.2824895,-123.1181328,1,V6B,OK,intersection
577,APPROXIMATE,"Nan, Thailand",ChIJu20dDgmOJzERwJWGOLGCgAs,,18.7756318,100.7730417,1,,OK,"administrative_area_level_1,political"
578,APPROXIMATE,"Githurai, Kenya",ChIJc5jnXck_LxgRNLLmN74T7uM,"Githurai, Nairobi. kENYA",-1.2064151,36.913794,1,,OK,"locality,political"
579,APPROXIMATE,"Nan, Thailand",ChIJu20dDgmOJzERwJWGOLGCgAs,,18.7756318,100.7730417,1,,OK,"administrative_area_level_1,political"
580,APPROXIMATE,"Prospect Heights, IL, USA",ChIJz4bfU4u5D4gR7qmbnW_gXnc,"Prospect Heights, IL",42.0953049,-87.9375694,1,,OK,"locality,political"
581,APPROXIMATE,"Prospect Heights, IL, USA",ChIJz4bfU4u5D4gR7qmbnW_gXnc,"Prospect Heights, IL",42.0953049,-87.9375694,1,,OK,"locality,political"
582,APPROXIMATE,"Pompano Beach, FL, USA",ChIJiUSIQdkC2YgR83Sudl4cYTs,Pompano Beach,26.2378597,-80.1247667,1,,OK,"locality,political"
583,GEOMETRIC_CENTER,"W Pico Blvd, Los Angeles, CA, USA",ChIJ67kzzAe5woAR2VjXnqBeBmY,"Pico Boulevard in Los Angeles, CA",34.0484816,-118.3560395,1,,OK,route
584,APPROXIMATE,"Rotterdam, Netherlands",ChIJfcRUX2C3xUcRhUtelay7KVI,"Rotterdam, Holland",51.9244201,4.4777326,1,,OK,"locality,political"
585,APPROXIMATE,"Calgary, AB, Canada",ChIJ1T-EnwNwcVMROrZStrE7bSY,"Calgary, AB",51.0486151,-114.0708459,1,,OK,"locality,political"
586,ROOFTOP,"1440 P St NW, Washington, DC 20005, USA",ChIJE_Jo2MG3t4kRDmuaghjExpo,"Washington DC, at Whole Foods",38.9093682,-77.0334586,1,20005,OK,"establishment,food,grocery_or_supermarket,health,point_of_interest,store,supermarket"
587,,,,"Lakewood, OH, U.S. While walking up Warren Rd to Downtown Lakewood",,,0,,ZERO_RESULTS,
588,ROOFTOP,"Fairy Lake Park, 520 Water St, Newmarket, ON L3Y 1M5, Canada",ChIJi4NFlhHSKogR7XkBcc2-1Lo,"Newmarket, Canada, on a trail",44.0513778,-79.4547989,1,L3Y 1M5,OK,"establishment,park,point_of_interest"
589,APPROXIMATE,"Bristol, UK",ChIJYdizgWaDcUgRH9eaSy6y5I4,Bristol,51.454513,-2.58791,1,,OK,"locality,political"
590,GEOMETRIC_CENTER,"Chelsea Rd, Bristol BS5 6AS, UK",ChIJJ_blBEeOcUgRvhAaP5PjExg,"chelsea road, bristol",51.4638628,-2.5632138,1,BS5 6AS,OK,route
591,APPROXIMATE,"London, UK",ChIJdd4hrwug2EcRmSrV3Vo6llI,london,51.5073509,-0.1277583,1,,OK,"locality,political"
592,APPROXIMATE,"Jericho, NY, USA",ChIJme4TzTiBwokRvauYHf0Xh0s,Jericho NY,40.7920441,-73.5398476,1,,OK,"locality,political"
593,,,,"Chicago, IL. He was on my bus and I noticed him staring at me but I didn't do anything because to be honest, that happens often. He got off at the same stop and started to follow me. I did;t turn around because I didn't want to engage but as I was in the alley and nearing my house he said hello, and that's where the harassment began. ",,,0,,ZERO_RESULTS,
594,APPROXIMATE,"Philadelphia, PA, USA",ChIJ60u11Ni3xokRwVg-jNgU9Yk,"Philadelphia , pa",39.9525839,-75.1652215,1,,OK,"locality,political"
595,GEOMETRIC_CENTER,"Manchester & Canterbury, Aurora, OH 44202, USA",Ei5NYW5jaGVzdGVyICYgQ2FudGVyYnVyeSwgQXVyb3JhLCBPSCA0NDIwMiwgVVNB,Manchester and Canterbury,41.320495,-81.3501844,1,44202,OK,intersection
596,ROOFTOP,"6700 Topanga Canyon Blvd, Canoga Park, CA 91303, USA",ChIJlSKZHz2cwoARU9wK84Jbqbk,Topanga mall / target side,34.191843,-118.602589,1,91303,OK,"clothing_store,department_store,electronics_store,establishment,food,furniture_store,grocery_or_supermarket,home_goods_store,point_of_interest,store"
597,APPROXIMATE,"Southend-on-Sea, UK",ChIJPTV1hQXE2EcRK0P6hipgqqw,Southend,51.5459269,0.7077123,1,,OK,"locality,political"
598,APPROXIMATE,"San Francisco, CA, USA",ChIJIQBpAG2ahYAR_6128GcTUEo,San Francisco ,37.7749295,-122.4194155,1,,OK,"locality,political"
599,APPROXIMATE,"Nan, Thailand",ChIJu20dDgmOJzERwJWGOLGCgAs,,18.7756318,100.7730417,1,,OK,"administrative_area_level_1,political"
600,APPROXIMATE,"Ayr, UK",ChIJhV6xcNBwYkgR4LVCBhpoDAU,Ayr Scotland,55.458564,-4.629179,1,,OK,"locality,political"
601,APPROXIMATE,"Nan, Thailand",ChIJu20dDgmOJzERwJWGOLGCgAs,,18.7756318,100.7730417,1,,OK,"administrative_area_level_1,political"
602,,,,??,,,0,,ZERO_RESULTS,
603,APPROXIMATE,"Ringwood VIC 3134, Australia",ChIJ22orkgk81moRkNeMIXVWBAU,"Australia, Ringwood",-37.8114,145.2306,1,3134,OK,"locality,political"
604,,,,"Near Illawara Crescent North and Alexander Drive lights, Ballajura, Western Australia.",,,0,,ZERO_RESULTS,
605,APPROXIMATE,"Exeter, UK",ChIJp41J1MRSbEgRHq3fayXjdqk,"Exeter, England",50.718412,-3.533899,1,,OK,"locality,political"
606,APPROXIMATE,"Prospect Lefferts Gardens, Brooklyn, NY, USA",ChIJe-VcEWpbwokRViSBhgVp6sE,"Propsect Lefferts Garden, Brooklyn, NY",40.6590448,-73.9506774,1,,OK,"neighborhood,political"
607,APPROXIMATE,"Manila, Metro Manila, Philippines",ChIJi8MeVwPKlzMRH8FpEHXV0Wk,"Manila, Philippines",14.5995124,120.9842195,1,,OK,"locality,political"
608,ROOFTOP,"285 Boston Ave, Medford, MA 02155, USA",ChIJ1bnrV-h244kRYHIj36lXQwk,MEDFORD MASS  AT VARITY C BOSTON AVE ,42.4127947,-71.1239515,1,2155,OK,"convenience_store,establishment,food,point_of_interest,store"
609,ROOFTOP,"Canada, 1287 N Service Rd, Mississauga, ON L4Y 1A9, Canada",ChIJoaffotxHK4gRH4D10Wq4ocs,Canada/walking dog on road,43.5959107,-79.5703455,1,L4Y 1A9,OK,"establishment,point_of_interest"
610,APPROXIMATE,Sweden,ChIJ8fA1bTmyXEYRYm-tjaLruCI,Sweden,60.128161,18.643501,1,,OK,"country,political"
611,APPROXIMATE,"Nan, Thailand",ChIJu20dDgmOJzERwJWGOLGCgAs,,18.7756318,100.7730417,1,,OK,"administrative_area_level_1,political"
612,APPROXIMATE,"Nan, Thailand",ChIJu20dDgmOJzERwJWGOLGCgAs,,18.7756318,100.7730417,1,,OK,"administrative_area_level_1,political"
613,APPROXIMATE,"Nan, Thailand",ChIJu20dDgmOJzERwJWGOLGCgAs,,18.7756318,100.7730417,1,,OK,"administrative_area_level_1,political"
614,ROOFTOP,"400 Ernest W Barrett Pkwy NW, Kennesaw, GA 30144, USA",ChIJXyRDoNgU9YgRcFBzM3vZc7c,In the mall and in town,34.0176385,-84.564278,1,30144,OK,"establishment,point_of_interest,shopping_mall"
615,APPROXIMATE,"Brooklyn, NY, USA",ChIJCSF8lBZEwokRhngABHRcdoI,Brooklyn NY,40.6781784,-73.9441579,1,,OK,"political,sublocality,sublocality_level_1"
616,APPROXIMATE,"Brooklyn, NY, USA",ChIJCSF8lBZEwokRhngABHRcdoI,Brooklyn NY,40.6781784,-73.9441579,1,,OK,"political,sublocality,sublocality_level_1"
617,APPROXIMATE,"Nan, Thailand",ChIJu20dDgmOJzERwJWGOLGCgAs,,18.7756318,100.7730417,1,,OK,"administrative_area_level_1,political"
618,APPROXIMATE,"Nan, Thailand",ChIJu20dDgmOJzERwJWGOLGCgAs,,18.7756318,100.7730417,1,,OK,"administrative_area_level_1,political"
619,APPROXIMATE,"New Jersey, USA",ChIJn0AAnpX7wIkRjW0_-Ad70iw,NJ,40.0583238,-74.4056612,1,,OK,"administrative_area_level_1,political"
620,ROOFTOP,"7538 San Pedro Ave, San Antonio, TX 78216, USA",ChIJRbAqpAlgXIYR9U9pdngtiJA,San Antonio via bus station ,29.5194227,-98.498456,1,78216,OK,"bus_station,establishment,point_of_interest,transit_station"
621,GEOMETRIC_CENTER,"Carrer del Dr. Vila Barberà, 46007 València, Valencia, Spain",ChIJt0qxKTRPYA0RP98KB73tIRI,"California, Scotland, Spain, Thailand - street, parking lot, ",39.4620728,-0.3794517,2,46007,OK,"establishment,parking,point_of_interest"
622,ROOFTOP,"1052 Turf Farm Rd, Payson, UT 84651, USA",ChIJkytbJCmkTYcR1Hu6xv3tNxQ,"Wal-mart, Payson, UT",40.0278287,-111.7566484,1,84651,OK,"department_store,electronics_store,establishment,food,grocery_or_supermarket,point_of_interest,store,supermarket"
623,APPROXIMATE,"Wokingham, UK",ChIJS0UZ1VSAdkgRwsB_B642Gq0,"Wokingham, UK",51.410457,-0.833861,1,,OK,"locality,political"
624,APPROXIMATE,"Wisconsin, USA",ChIJr-OEkw_0qFIR1kmG-LjV1fI,Wisconsin ,43.7844397,-88.7878678,1,,OK,"administrative_area_level_1,political"
625,ROOFTOP,"19350 NW Emma Way, Hillsboro, OR 97124, USA",ChIJNRhYW28PlVQRdP_WG2hVNcE,"It's still happening! On the streets and stores of Hillsboro, oregon. ",45.5366498,-122.8781933,1,97124,OK,"establishment,point_of_interest,shopping_mall"
626,APPROXIMATE,"Bradenton Beach, FL 34217, USA",ChIJpwaVMUgRw4gRSQam3Aqq6d0,Bradenton Beach,27.4682549,-82.6993631,1,34217,OK,"locality,political"
627,APPROXIMATE,India,ChIJkbeSa_BfYzARphNChaFPjNc,India,20.593684,78.96288,1,,OK,"country,political"
628,GEOMETRIC_CENTER,"Oblong Park, Oblong, IL 62449, USA",ChIJpcT0cPtAcogR1AK7TBE0Gxc,Oblong Illinois City Park,39.0044045,-87.9019109,1,62449,OK,"establishment,park,point_of_interest,premise"
629,RANGE_INTERPOLATED,"10014 West Side Hwy, Lost Hills, CA 93249, USA",Ei4xMDAxNCBXZXN0IFNpZGUgSHd5LCBMb3N0IEhpbGxzLCBDQSA5MzI0OSwgVVNB,10014 west side highway,35.6888722,-119.9175345,1,93249,OK,street_address
630,APPROXIMATE,"Handsworth, Birmingham, UK",ChIJrXG_1NSicEgRdYdL-SlaBxk,"Handsworth, Birmingham, UK",52.5143881,-1.9392497,1,,OK,"political,sublocality,sublocality_level_1"
631,ROOFTOP,"1998 N High St, Columbus, OH 43201, USA",ChIJBxcvhbuOOIgRlB-QJRQ_byk,"Columbus, OH, USA Buckeye Donuts",40.0030561,-83.0084152,2,43201,OK,"bakery,cafe,establishment,food,point_of_interest,restaurant,store"
632,APPROXIMATE,"Sunnyvale, CA, USA",ChIJO13QqUW2j4ARosN83Sb7jXY,"Sunnyvale, CA",37.36883,-122.0363496,1,,OK,"locality,political"
633,ROOFTOP,"1014 Gillespie St, Fayetteville, NC 28306, USA",ChIJieEwqCETq4kRQfAUT3zMltA,NC/Cumberland County School Bus,35.03527,-78.8864329,1,28306,OK,"establishment,point_of_interest"
634,APPROXIMATE,Pakistan,ChIJH3X9-NJS2zgRXJIU5veht0Y,Pakistan,30.375321,69.345116,1,,OK,"country,political"
635,ROOFTOP,"3726 Lake St Suite F, Homer, AK 99603, USA",ChIJI075I4wtwVYRHrfw2VhqsA0,Homer/Alaska/United States in a store,59.6443135,-151.5242609,1,99603,OK,"electronics_store,establishment,point_of_interest,store"
636,ROOFTOP,"1376 Wellington Rd, London, ON N6E 1M7, Canada",ChIJDY-IjJrzLogRvK58pySDGSk,"London, Ontario, Canada, Wendy's.",42.9269133,-81.2170975,1,N6E 1M7,OK,"establishment,food,point_of_interest,restaurant"
637,GEOMETRIC_CENTER,"Atlantic Ave, Queens, NY, USA",Eh1BdGxhbnRpYyBBdmUsIFF1ZWVucywgTlksIFVTQQ,"Brooklyn/NY/USA, Atlantic Avenue",40.6778021,-73.9358343,1,,OK,route
638,APPROXIMATE,"Albany, NY, USA",ChIJS_tPzDQK3okRxCjnoBJjoeE,"Albany, NY, USA",42.6525793,-73.7562317,1,,OK,"locality,political"
639,GEOMETRIC_CENTER,"Valentines Park, Cranbrook Rd, Ilford IG1 4UA, UK",ChIJESED15Km2EcR3SsqFEZQaUs,Valentine's park Gants hill,51.5700518,0.0710868,1,IG1 4UA,OK,"establishment,park,point_of_interest"
640,APPROXIMATE,"Newcastle upon Tyne, UK",ChIJzWRvDH6FfUgRkWGncrBS4gs,"Newcastle, United Kingdom",54.978252,-1.61778,1,,OK,"locality,political"
641,APPROXIMATE,"Pennsylvania, USA",ChIJieUyHiaALYgRPbQiUEchRsI,Pennsylvania,41.2033216,-77.1945247,1,,OK,"administrative_area_level_1,political"
642,APPROXIMATE,"Nan, Thailand",ChIJu20dDgmOJzERwJWGOLGCgAs,,18.7756318,100.7730417,1,,OK,"administrative_area_level_1,political"
643,APPROXIMATE,"Downtown, Grand Rapids, MI 49503, USA",ChIJO3i0nMOtGYgRxvEDv6D3izo,"Downtown Grand Rapids, MI ",42.9597268,-85.6717405,1,49503,OK,"neighborhood,political"
644,APPROXIMATE,"Heidelberg, Germany",ChIJzdzMDgXBl0cR1zokRADq5u8,Heidelberg,49.3987524,8.6724335,1,,OK,"locality,political"
645,ROOFTOP,"710 Santa Monica Blvd, Santa Monica, CA 90401, USA",ChIJxzgULMykwoARqCEz2wWVCxc,my neighborhood,34.0188564,-118.4917947,1,90401,OK,"establishment,point_of_interest"
646,APPROXIMATE,"Fernhill Heath, Worcester WR3, UK",ChIJGcCjZ73xcEgRs1c_s8a6ZJA,"Fernhill Heath, Worcester, UK. ",52.231537,-2.192295,1,WR3,OK,"locality,political"
647,APPROXIMATE,"Quito, Ecuador",ChIJn3xCAkCa1ZERclXvWOGRuUQ,Quito-Ecuador.,-0.1806532,-78.4678382,1,,OK,"locality,political"
648,APPROXIMATE,United States,ChIJCzYy5IS16lQRQrfeQ5K5Oxw,USA,37.09024,-95.712891,1,,OK,"country,political"
649,GEOMETRIC_CENTER,"Phoenix, AZ 85013, USA",ChIJD4OASMASK4cRYJrvOFO3vfU,"Phoenix, central and Camelback light rail",33.5088595,-112.0739331,1,85013,OK,"bus_station,establishment,point_of_interest,transit_station"
650,APPROXIMATE,"El Monte, CA, USA",ChIJ79D2Y6TQwoARTTewpY4BD2s,"El Monte, CA",34.0686206,-118.0275667,1,,OK,"locality,political"
651,APPROXIMATE,"Quitman, MS 39355, USA",ChIJlXeHssKehIgRZjRLP_5PIxU," Quitman, MS United State",32.0401499,-88.7281,1,39355,OK,"locality,political"
652,ROOFTOP,"139 Pine Brook Rd, Manalapan Township, NJ 07726, USA",ChIJxTb-pxPRw4kR1QDbLmGiOaw,country roads ,40.3171941,-74.3386683,1,7726,OK,"establishment,point_of_interest"
653,ROOFTOP,"8100 Fenton St, Silver Spring, MD 20910, USA",ChIJmaMQ8bzIt4kR4Qk3vJ8Vm-c,S9 bus stop in Silver Spring,38.9904961,-77.0243042,1,20910,OK,"establishment,point_of_interest"
654,GEOMETRIC_CENTER,"Astor Pl, New York, NY 10003, USA",ChIJl6u-sZtZwokRlY016djKNJQ,Astor place NYC ,40.7298544,-73.9913978,1,10003,OK,route
655,APPROXIMATE,"Austin, TX, USA",ChIJLwPMoJm1RIYRetVp1EtGm10,"Austin, TX, USA ",30.267153,-97.7430608,1,,OK,"locality,political"
656,GEOMETRIC_CENTER,"Palm Beach State College Dr, Boca Raton, FL 33431, USA",ChIJq1mL_B0e2YgR-Q9xJds7jQE,"Palm Beach State College, Boca Raton, FL",26.3761993,-80.0989203,1,33431,OK,route
657,GEOMETRIC_CENTER,"Holly Ln, Tonawanda, NY 14150, USA",ChIJCw0s1P9t04kRpRC2KuuWfr4,"Holly St. City of Tonawanda, Buffalo,New York. U.S.A.",43.0144767,-78.8409281,1,14150,OK,route
658,GEOMETRIC_CENTER,"4th St, Bremerton, WA, USA",ChIJZ0A32HY3kFQRXrXmhzTr4nE,"4th Street, Bremerton Washington",47.5657961,-122.6365023,1,,OK,route
659,ROOFTOP,"1065 6th Ave, New York, NY 10018, USA",ChIJ5VBS5qpZwokRYoNkG8OVVb0,Barilla Restaurants https://www.yelp.com/biz/barilla-restaurants-new-york-6,40.7539086,-73.985034,1,10018,OK,"establishment,food,point_of_interest,restaurant"
660,ROOFTOP,"6 E 6th St, Lawrence, KS 66044, USA",ChIJYTVfXCBvv4cR4lI-bXfYkzo,Bus stop,38.973212,-95.2357094,1,66044,OK,"bus_station,establishment,point_of_interest,transit_station"
661,APPROXIMATE,"Union Square, New York, NY 10003, USA",ChIJi6oUnphZwokRpMog28mvAM0,NYC - Union Square,40.7358633,-73.9910835,1,10003,OK,"neighborhood,political"
662,APPROXIMATE,"Griffin, GA, USA",ChIJEdPOnG2K9IgRWvJ8s_Yrh8Y,"Griffin, Georgia",33.2467807,-84.2640904,1,,OK,"locality,political"
663,ROOFTOP,"Beursstraat 11-19, 1012 JT Amsterdam, Netherlands",ChIJa63SZLgJxkcRik7veCgZOpU,"Amsterdam city center, Haarlem station and city center",52.375015,4.897043,1,1012 JT,OK,"establishment,lodging,point_of_interest"
664,ROOFTOP,"3683 Eva Rd, Eva, AL 35621, USA",ChIJ1z9vae3QiYgRpFxX63zAVLI,On my way home from school,34.3422209,-86.7634258,1,35621,OK,"establishment,point_of_interest,school"
665,ROOFTOP,"3865 N Wickham Rd, Melbourne, FL 32935, USA",ChIJc0YBfn4F3ogRQrTETVk8b1g,"Melbourne, Florida at Eastern Florida State College ",28.169954,-80.6708733,1,32935,OK,"establishment,point_of_interest,university"
666,ROOFTOP,"504 St Clair Ave W, Toronto, ON M6C 1A2, Canada",ChIJIReWzH0zK4gR7Z5PGqjSz1c,"Toronto, Ontario, 504 St Clair Ave W, Toronto, ON M6C 1A2",43.6833399,-79.418756,1,M6C 1A2,OK,street_address
667,APPROXIMATE,"Bandar Bayan Baru, 11900 Bayan Lepas, Pulau Pinang, Malaysia",ChIJxSXXVnLASjARgvNAH9nYURw,"Bayan baru, Penang, Malaysia",5.3158246,100.2856038,1,11900,OK,"political,sublocality,sublocality_level_1"
668,GEOMETRIC_CENTER,"Hanger Ln, London W5, UK",ChIJJXw9uQUSdkgRg3q0mmYFlZc,Hanger Lane road ,51.5213303,-0.2915052,1,W5,OK,route
669,,,,Throughout Japan,,,0,,ZERO_RESULTS,
670,APPROXIMATE,"Paris, France",ChIJD7fiBh9u5kcRYJSMaMOCCwQ,"Paris, France",48.856614,2.3522219,1,,OK,"locality,political"
671,APPROXIMATE,"Capitol Hill, Washington, DC, USA",ChIJmZaX9TK4t4kRnP6quyxTrws,Washington DC capitol hill neighboirhood,38.8860434,-76.999525,1,,OK,"neighborhood,political"
672,APPROXIMATE,"Stamford, CT, USA",ChIJC7zHsmShwokRbrc0nIuGQ4c,Stamford,41.0534302,-73.5387341,1,,OK,"locality,political"
673,GEOMETRIC_CENTER,"Abandoned Rd, Wyoming, USA",ChIJ4al0MtG8V4cR9vrMjNAn8MY,Deserted street,42.7794097,-110.0030487,9,,OK,route
674,APPROXIMATE,"Long Island, New York, USA",ChIJy6Xu4VRE6IkRGA2UhmH59x0,Long Island NY,40.789142,-73.134961,1,,OK,"establishment,natural_feature"
675,APPROXIMATE,United States,ChIJCzYy5IS16lQRQrfeQ5K5Oxw,USA,37.09024,-95.712891,1,,OK,"country,political"
676,APPROXIMATE,"London, UK",ChIJdd4hrwug2EcRmSrV3Vo6llI,London,51.5073509,-0.1277583,1,,OK,"locality,political"
677,ROOFTOP,"800 S Wells St, Chicago, IL 60607, USA",ChIJjwz9IJQsDogRfohLQDopyuk,"Chicago, IL in the Loop outside a convenience store in a very busy business district. ",41.8713527,-87.6343066,1,60607,OK,"convenience_store,establishment,food,grocery_or_supermarket,liquor_store,point_of_interest,store"
678,ROOFTOP,"Wynwood Walls, 2520 NW 2nd Ave, Miami, FL 33127, USA",ChIJ98BffLK22YgRsymdIvOgjNA,"Wynwood area, Miami. Near the Wynwood walls walk entrance",25.8011729,-80.2002305,1,33127,OK,"establishment,museum,park,point_of_interest"
679,APPROXIMATE,"London, UK",ChIJdd4hrwug2EcRmSrV3Vo6llI,London,51.5073509,-0.1277583,1,,OK,"locality,political"
680,APPROXIMATE,"Pittsburgh, PA, USA",ChIJA4UGSG_xNIgRNBuiWqEV-Y0,Pittsburgh,40.4406248,-79.9958864,1,,OK,"locality,political"
681,GEOMETRIC_CENTER,"Northumberland Rd, Maidstone ME15, UK",ChIJvYKgRfAx30cRwMQqk9ctjjc,"Maidstone, Kent, Britain, Northumberlend road",51.2529895,0.5471964,1,ME15,OK,route
682,ROOFTOP,"135-10 Jamaica Ave, Richmond Hill, NY 11418, USA",ChIJJaS_5cdgwokRhAkTOd6a-Xs,"Royal taxi and limo services at richmond hill, New York ",40.7023095,-73.8173034,1,11418,OK,"establishment,point_of_interest"
683,APPROXIMATE,"New York, NY, USA",ChIJOwg_06VPwokRYv534QaPC8g,New York ,40.7127753,-74.0059728,1,,OK,"locality,political"
684,APPROXIMATE,"Uptown, Dallas, TX, USA",ChIJkco26yyZToYRxpHfXQpOyNY,"Uptown Dallas, TX",32.8015565,-96.8002704,1,,OK,"neighborhood,political"
685,ROOFTOP,"1335 E 5th Ave, Emporia, KS 66801, USA",ChIJ3aeh56tOuYcREvjTN2uJBXs,Street ,38.403528,-96.1574909,1,66801,OK,"establishment,point_of_interest"
686,APPROXIMATE,"Bengaluru, Karnataka, India",ChIJbU60yXAWrjsR4E9-UejD3_g,Bangalore,12.9715987,77.5945627,1,,OK,"locality,political"
687,APPROXIMATE,"Delaware, USA",ChIJO9YMTXYFx4kReOgEjBItHZQ,"Delaware & Raritan Canal State Park, Franklin Township, NJ",38.9108325,-75.5276699,1,,OK,"administrative_area_level_1,political"
688,ROOFTOP,"5530 Killingsworth Lane, Pflugerville, TX 78660, USA",ChIJN4WfWgjGRIYRkKx7kyuoOHk,Right outside school,30.3962165,-97.5978716,1,78660,OK,"establishment,point_of_interest,school"
689,APPROXIMATE,"Nan, Thailand",ChIJu20dDgmOJzERwJWGOLGCgAs,,18.7756318,100.7730417,1,,OK,"administrative_area_level_1,political"
690,ROOFTOP,"4052 Washington St, Weirton, WV 26062, USA",ChIJrXpR5F0wNIgRQVvNLJz5O9M,West Virginia at Gumby's Beer and Cigarette World,40.3923078,-80.5943237,1,26062,OK,"establishment,point_of_interest,store"
